OBJECTID *,Shape *,OBJECTID *,uid,BOROUGH,BLOCK,LOT,BBL,MAPBBL,CD,HNUM,SNAME,ADDRESS,PARCELNAME,AGENCY,USECODE,USETYPE,OWNERSHIP,CATEGORY,EXPANDCAT,EXCATDESC,LEASED,FINALCOM,AGREEMENT,XCOORD,YCOORD,LATITUDE,LONGITUDE,DCPEDITED
3,Point,31,0790c88abcbb66f07cc6aa2a7a3aa7f3,4,13432,23,4134320023,4134320023,413,<Null>,150 AVENUE,150 AVENUE,<Null>,DCAS,1520,NO USE-VACANT LAND,C,3,8,PROPERTY WITH NO USE,<Null>,<Null>,<Null>,1049957,178524,40.65644,-73.763185,<Null>
4,Point,36,07f380ab2b370c7d8786ccbaad0509fb,4,13433,35,4134330035,4134330035,413,<Null>,SPRINGFIELD BOULEVARD,SPRINGFIELD BOULEVARD,<Null>,DCAS,1520,NO USE-VACANT LAND,C,3,8,PROPERTY WITH NO USE,<Null>,<Null>,<Null>,1049833,177978,40.654943,-73.763638,<Null>
9,Point,113,1aa256c00d1d5f6bdd5484fc6eafad67,4,13433,5,4134330005,4134330005,413,<Null>,150 ROAD,150 ROAD,<Null>,DCAS,1520,NO USE-VACANT LAND,C,3,8,PROPERTY WITH NO USE,<Null>,<Null>,<Null>,1049767,178366,40.656008,-73.763872,<Null>
10,Point,118,1c659d9e664ee2cb667b8a962d699e0b,4,2545,54,4025450054,4025450054,402,<Null>,48 STREET,48 STREET,<Null>,DCAS,1520,NO USE-VACANT LAND,C,3,8,PROPERTY WITH NO USE,<Null>,<Null>,<Null>,1006617,205498,40.730693,-73.919297,<Null>
11,Point,121,1d073fea99d406fbe474701472278874,4,312,17,4003120017,4003120017,402,<Null>,LAUREL HILL BOULEVARD,LAUREL HILL BOULEVARD,<Null>,DCAS,1520,NO USE-VACANT LAND,C,3,8,PROPERTY WITH NO USE,<Null>,<Null>,<Null>,1001212,206622,40.73379,-73.938796,<Null>
12,Point,131,1fde83f9cdbb8a728cef5edb9930e422,4,14260,85,4142600085,4142600085,413,<Null>,<Null>,<Null>,<Null>,DSBS,1520,NO USE-VACANT LAND,C,3,8,PROPERTY WITH NO USE,<Null>,<Null>,<Null>,1045728,180682,40.662394,-73.778407,<Null>
13,Point,136,20859cdc952def322c0a3b361a8d600e,4,2602,325,4026020325,4026020325,405,<Null>,49 PLACE,49 PLACE,<Null>,DCAS,1520,NO USE-VACANT LAND,C,3,8,PROPERTY WITH NO USE,<Null>,<Null>,<Null>,1006171,201822,40.720605,-73.920919,<Null>
16,Point,160,25bf944bd80c1c1964b0e39ac7da2f1b,4,13433,23,4134330023,4134330023,413,<Null>,SPRINGFIELD BOULEVARD,SPRINGFIELD BOULEVARD,<Null>,DCAS,1520,NO USE-VACANT LAND,C,3,8,PROPERTY WITH NO USE,<Null>,<Null>,<Null>,1049943,178228,40.655628,-73.763239,<Null>
19,Point,193,2c1d5a43c4c8283ddfd88972a2449528,4,13433,15,4134330015,4134330015,413,<Null>,150 ROAD,150 ROAD,<Null>,DCAS,1520,NO USE-VACANT LAND,C,3,8,PROPERTY WITH NO USE,<Null>,<Null>,<Null>,1049885,178277,40.655763,-73.763447,<Null>
20,Point,202,3026f3316ac8f3bb3b03d2c3eb432813,4,2599,45,4025990045,4025990045,405,<Null>,RUST STREET,RUST STREET,<Null>,DCAS,1520,NO USE-VACANT LAND,C,3,8,PROPERTY WITH NO USE,<Null>,<Null>,<Null>,1008519,201869,40.720727,-73.912448,<Null>
24,Point,240,3b773cf366994226017a5671bcd504dd,4,13432,26,4134320026,4134320026,413,<Null>,150 AVENUE,150 AVENUE,<Null>,DCAS,1520,NO USE-VACANT LAND,C,3,8,PROPERTY WITH NO USE,<Null>,<Null>,<Null>,1049993,178508,40.656396,-73.763056,<Null>
25,Point,256,3e641eabe9ffa645be788e0dbdfee437,4,13432,59,4134320059,4134320059,413,<Null>,150 ROAD,150 ROAD,<Null>,DCAS,1520,NO USE-VACANT LAND,C,3,8,PROPERTY WITH NO USE,<Null>,<Null>,<Null>,1049700,178528,40.656453,-73.764112,<Null>
26,Point,259,3ee1b2e4331c6b06644be82117b15090,4,13419,1,4134190001,4134190001,413,18112,150 DRIVE,18112 150 DRIVE,<Null>,DCAS,1520,NO USE-VACANT LAND,C,3,8,PROPERTY WITH NO USE,<Null>,<Null>,<Null>,1049398,178167,40.655465,-73.765203,<Null>
27,Point,261,3f3859283b7baf5720707cb081bf6a7a,4,13432,28,4134320028,4134320028,413,<Null>,SPRINGFIELD BOULEVARD,SPRINGFIELD BOULEVARD,<Null>,DCAS,1520,NO USE-VACANT LAND,C,3,8,PROPERTY WITH NO USE,<Null>,<Null>,<Null>,1050063,178509,40.656398,-73.762803,<Null>
29,Point,266,4101e302b80b0e808c13f9eea8dedb76,4,13433,20,4134330020,4134330020,413,<Null>,150 ROAD,150 ROAD,<Null>,DCAS,1520,NO USE-VACANT LAND,C,3,8,PROPERTY WITH NO USE,<Null>,<Null>,<Null>,1049971,178289,40.655795,-73.763137,<Null>
30,Point,291,49728c2c767b45513ec3d61b01a2094f,4,13432,20,4134320020,4134320020,413,<Null>,SPRINGFIELD BOULEVARD,SPRINGFIELD BOULEVARD,<Null>,DCAS,1520,NO USE-VACANT LAND,C,3,8,PROPERTY WITH NO USE,<Null>,<Null>,<Null>,1049887,178541,40.656488,-73.763437,<Null>
34,Point,322,534de2ab82331ea2f7034400325029a9,4,2575,58,4025750058,4025750058,402,<Null>,56 ROAD,56 ROAD,<Null>,DCAS,1520,NO USE-VACANT LAND,C,3,8,PROPERTY WITH NO USE,<Null>,<Null>,<Null>,1006598,203789,40.726002,-73.919372,<Null>
36,Point,340,584d5e7f2ec60bb8473c7e34cef002e5,4,13433,10,4134330010,4134330010,413,<Null>,150 ROAD,150 ROAD,<Null>,DCAS,1520,NO USE-VACANT LAND,C,3,8,PROPERTY WITH NO USE,<Null>,<Null>,<Null>,1049827,178318,40.655876,-73.763656,<Null>
38,Point,343,58f76f538925263f360033fba8e21b85,4,2552,142,4025520142,4025520142,402,<Null>,56 ROAD,56 ROAD,<Null>,DCAS,1520,NO USE-VACANT LAND,C,3,8,PROPERTY WITH NO USE,<Null>,<Null>,<Null>,1006238,203812,40.726067,-73.92067,<Null>
39,Point,353,5b5f443b1bf306ecb9c020a5a48c8053,4,2611,80,4026110080,4026110080,405,<Null>,GRAND AVENUE,GRAND AVENUE,<Null>,DCAS,1520,NO USE-VACANT LAND,C,3,8,PROPERTY WITH NO USE,<Null>,<Null>,<Null>,1005797,200311,40.716458,-73.922273,<Null>
40,Point,355,5bedc0ceb93ebd5a2fb22c0f4d19e133,4,2575,70,4025750070,4025750070,402,3,56 ROAD,3 56 ROAD,<Null>,DCAS,1520,NO USE-VACANT LAND,C,3,8,PROPERTY WITH NO USE,<Null>,<Null>,<Null>,1006968,203697,40.725749,-73.918037,<Null>
41,Point,357,5d25437af6fa3b845f9ec2601ec1105f,4,1210,34,4012100034,4012100034,402,<Null>,38 AVENUE,38 AVENUE,<Null>,DCAS,1520,NO USE-VACANT LAND,C,3,8,PROPERTY WITH NO USE,<Null>,<Null>,<Null>,1009985,212396,40.749617,-73.907119,<Null>
43,Point,382,642349c40cea2caa8a9cb7d0ded9e537,4,13433,2,4134330002,4134330002,413,<Null>,150 ROAD,150 ROAD,<Null>,DCAS,1520,NO USE-VACANT LAND,C,3,8,PROPERTY WITH NO USE,<Null>,<Null>,<Null>,1049712,178402,40.656107,-73.764069,<Null>
44,Point,387,6534948273312d06dcb3ea34aa69dc8a,4,2552,100,4025520100,4025520100,402,<Null>,56 ROAD,56 ROAD,<Null>,DCAS,1520,NO USE-VACANT LAND,C,3,8,PROPERTY WITH NO USE,<Null>,<Null>,<Null>,1005655,203954,40.726458,-73.922773,<Null>
46,Point,402,6b98ac877eb5a03bce43236f4ef21c51,4,13432,67,4134320067,4134320067,413,<Null>,150 ROAD,150 ROAD,<Null>,DCAS,1520,NO USE-VACANT LAND,C,3,8,PROPERTY WITH NO USE,<Null>,<Null>,<Null>,1049642,178527,40.656451,-73.764321,<Null>
47,Point,434,746443541e42448265708ba7ede00768,4,2622,100,4026220100,4026220100,405,<Null>,RUST STREET,RUST STREET,<Null>,DCAS,1520,NO USE-VACANT LAND,C,3,8,PROPERTY WITH NO USE,<Null>,<Null>,<Null>,1009171,200923,40.718129,-73.910099,<Null>
48,Point,452,78b7add6d719b90b1de4b3a4a0512b8b,4,13432,65,4134320065,4134320065,413,<Null>,150 ROAD,150 ROAD,<Null>,DCAS,1520,NO USE-VACANT LAND,C,3,8,PROPERTY WITH NO USE,<Null>,<Null>,<Null>,1049666,178519,40.656429,-73.764234,<Null>
56,Point,545,8d4689ecd24c9efa620d3fac2f9a4321,4,13433,41,4134330041,4134330041,413,<Null>,SPRINGFIELD BOULEVARD,SPRINGFIELD BOULEVARD,<Null>,DCAS,1520,NO USE-VACANT LAND,C,3,8,PROPERTY WITH NO USE,<Null>,<Null>,<Null>,1049829,177943,40.654847,-73.763652,<Null>
60,Point,568,93427df100769e290d02af38657408e9,4,1210,33,4012100033,4012100033,402,<Null>,56 STREET,56 STREET,<Null>,DCAS,1520,NO USE-VACANT LAND,C,3,8,PROPERTY WITH NO USE,<Null>,<Null>,<Null>,1010069,212339,40.749461,-73.906816,<Null>
61,Point,583,9645253dcdf975b0d29858cc59be8353,4,13432,21,4134320021,4134320021,413,<Null>,SPRINGFIELD BOULEVARD,SPRINGFIELD BOULEVARD,<Null>,DCAS,1520,NO USE-VACANT LAND,C,3,8,PROPERTY WITH NO USE,<Null>,<Null>,<Null>,1049919,178536,40.656474,-73.763322,<Null>
66,Point,616,9de0dd3f7bb6cafec16ecd39673c1f11,4,2575,75,4025750075,4025750075,402,<Null>,56 ROAD,56 ROAD,<Null>,DCAS,1520,NO USE-VACANT LAND,C,3,8,PROPERTY WITH NO USE,<Null>,<Null>,<Null>,1007019,203678,40.725697,-73.917853,<Null>
68,Point,669,ad721ee75d271c239b200279430b02cd,4,13433,34,4134330034,4134330034,413,<Null>,SPRINGFIELD BOULEVARD,SPRINGFIELD BOULEVARD,<Null>,DCAS,1520,NO USE-VACANT LAND,C,3,8,PROPERTY WITH NO USE,<Null>,<Null>,<Null>,1049869,178051,40.655143,-73.763507,<Null>
75,Point,742,c068e4d248e11ce79a91553c48658a37,4,13433,57,4134330057,4134330057,413,<Null>,183 STREET,183 STREET,<Null>,DCAS,1520,NO USE-VACANT LAND,C,3,8,PROPERTY WITH NO USE,<Null>,<Null>,<Null>,1049744,178038,40.655108,-73.763958,<Null>
77,Point,749,c20b36114b315d4af3377b1b1eccf44d,4,10352,98,4103520098,4103520098,412,<Null>,JAMAICA AVENUE,JAMAICA AVENUE,<Null>,DCAS,1520,NO USE-VACANT LAND,C,3,8,PROPERTY WITH NO USE,<Null>,<Null>,<Null>,1046939,197875,40.709576,-73.773882,<Null>
78,Point,752,c2cdc7d7fc093deef02ee10bf25808b8,4,13433,59,4134330059,4134330059,413,<Null>,183 STREET,183 STREET,<Null>,DCAS,1520,NO USE-VACANT LAND,C,3,8,PROPERTY WITH NO USE,<Null>,<Null>,<Null>,1049737,178082,40.655229,-73.763982,<Null>
80,Point,766,c4dda171572cea7820e469e8c7f4fc37,4,13420,8,4134200008,4134200008,413,<Null>,ROCKAWAY BOULEV,ROCKAWAY BOULEV,<Null>,DCAS,1520,NO USE-VACANT LAND,C,3,8,PROPERTY WITH NO USE,<Null>,<Null>,<Null>,1049611,177954,40.654878,-73.764438,<Null>
82,Point,777,ca36a612d4421b99ad071f4d45f2fbf6,4,70,45,4000700045,4000700045,402,<Null>,51 AVENUE,51 AVENUE,UNDER MIDTOWN TUNNEL EXPWY,DCAS,1520,NO USE-VACANT LAND,C,3,8,PROPERTY WITH NO USE,<Null>,<Null>,<Null>,998518,209413,40.741456,-73.948511,<Null>
84,Point,785,cd1624a89262a084d4fea33a96d08d12,4,13432,30,4134320030,4134320030,413,<Null>,SPRINGFIELD BOULEVARD,SPRINGFIELD BOULEVARD,<Null>,DCAS,1520,NO USE-VACANT LAND,C,3,8,PROPERTY WITH NO USE,<Null>,<Null>,<Null>,1050048,178473,40.6563,-73.762858,<Null>
88,Point,810,d1401dc6d8b851fcfb424d9ac496e3b6,4,13433,53,4134330053,4134330053,413,<Null>,183 STREET,183 STREET,<Null>,DCAS,1520,NO USE-VACANT LAND,C,3,8,PROPERTY WITH NO USE,<Null>,<Null>,<Null>,1049755,177953,40.654875,-73.763919,<Null>
89,Point,811,d1badf0d5872e1b1c992245c5d3f1f1e,4,13432,32,4134320032,4134320032,413,<Null>,SPRINGFIELD BOULEVARD,SPRINGFIELD BOULEVARD,<Null>,DCAS,1520,NO USE-VACANT LAND,C,3,8,PROPERTY WITH NO USE,<Null>,<Null>,<Null>,1050024,178418,40.656149,-73.762945,<Null>
91,Point,821,d44db52ec7d5411aa6ab83b44f2956aa,4,2552,75,4025520075,4025520075,402,<Null>,56 ROAD,56 ROAD,<Null>,DCAS,1520,NO USE-VACANT LAND,C,3,8,PROPERTY WITH NO USE,<Null>,<Null>,<Null>,1005682,203869,40.726224,-73.922676,<Null>
93,Point,875,e9b0b7422fa3dce678e3e42925218cbe,4,13433,69,4134330069,4134330069,413,<Null>,183 STREET,183 STREET,<Null>,DCAS,1520,NO USE-VACANT LAND,C,3,8,PROPERTY WITH NO USE,<Null>,<Null>,<Null>,1049718,178285,40.655786,-73.764049,<Null>
94,Point,895,eeb348f9babda5528e911bc8b73ffe36,4,13433,45,4134330045,4134330045,413,<Null>,SPRINGFIELD BOULEVARD,SPRINGFIELD BOULEVARD,<Null>,DCAS,1520,NO USE-VACANT LAND,C,3,8,PROPERTY WITH NO USE,<Null>,<Null>,<Null>,1049814,177943,40.654847,-73.763706,<Null>
95,Point,899,efae7e9807cc89c4e9c7d87d4afbbe5d,4,13433,36,4134330036,4134330036,413,<Null>,SPRINGFIELD BOULEVARD,SPRINGFIELD BOULEVARD,<Null>,DCAS,1520,NO USE-VACANT LAND,C,3,8,PROPERTY WITH NO USE,<Null>,<Null>,<Null>,1049821,178139,40.655385,-73.763679,<Null>
96,Point,900,efc64c49b6a1293463662e32404060bf,4,2599,49,4025990049,4025990049,405,<Null>,RUST STREET,RUST STREET,<Null>,DCAS,1520,NO USE-VACANT LAND,C,3,8,PROPERTY WITH NO USE,<Null>,<Null>,<Null>,1008542,201831,40.720623,-73.912365,<Null>
97,Point,902,f011d8f16b663e57a9066c38025dd938,4,14260,144,4142600144,4142600144,483,<Null>,SOUTH CONDUIT BOULEVARD,SOUTH CONDUIT BOULEVARD,PARK,DOT,1520,NO USE-VACANT LAND,C,3,8,PROPERTY WITH NO USE,<Null>,<Null>,<Null>,1030808,181581,40.664953,-73.832179,<Null>
98,Point,915,f427339a0c23471d1718a67ffbf1d1f1,4,13433,55,4134330055,4134330055,413,<Null>,183 STREET,183 STREET,<Null>,DCAS,1520,NO USE-VACANT LAND,C,3,8,PROPERTY WITH NO USE,<Null>,<Null>,<Null>,1049746,177992,40.654982,-73.763951,<Null>
99,Point,916,f457125767444867331a72ab327df89f,4,10059,10,4100590010,4100590010,412,14726,105 AVENUE,14726 105 AVENUE,<Null>,HPD,1520,NO USE-VACANT LAND,C,3,8,PROPERTY WITH NO USE,<Null>,D,<Null>,1038919,192933,40.696065,-73.80285,<Null>
104,Point,955,fd21b0b4c2399350254bb9142e0e046c,4,2575,244,4025750244,4025750244,402,<Null>,49 LANE,49 LANE,<Null>,DCAS,1520,NO USE-VACANT LAND,C,3,8,PROPERTY WITH NO USE,<Null>,<Null>,<Null>,1006979,202899,40.723559,-73.918,<Null>
106,Point,965,ff817f6007ac697876493f7dfd95165c,4,276,46,4002760046,4002760046,402,<Null>,QUEENS BOULEVARD,QUEENS BOULEVARD,<Null>,DCAS,1520,NO USE-VACANT LAND,C,3,8,PROPERTY WITH NO USE,<Null>,<Null>,<Null>,1002574,210976,40.745738,-73.93387,<Null>
107,Point,967,ff9e665a333cf970cd8b52ddd98cc5fa,4,13433,29,4134330029,4134330029,413,<Null>,SPRINGFIELD BOULEVARD,SPRINGFIELD BOULEVARD,<Null>,DCAS,1520,NO USE-VACANT LAND,C,3,8,PROPERTY WITH NO USE,<Null>,<Null>,<Null>,1049903,178139,40.655384,-73.763384,<Null>
112,Point,31,0790c88abcbb66f07cc6aa2a7a3aa7f3,4,13432,23,4134320023,4134320023,413,<Null>,150 AVENUE,150 AVENUE,<Null>,DCAS,1520,NO USE-VACANT LAND,C,3,8,PROPERTY WITH NO USE,<Null>,<Null>,<Null>,1049957,178524,40.65644,-73.763185,<Null>
113,Point,36,07f380ab2b370c7d8786ccbaad0509fb,4,13433,35,4134330035,4134330035,413,<Null>,SPRINGFIELD BOULEVARD,SPRINGFIELD BOULEVARD,<Null>,DCAS,1520,NO USE-VACANT LAND,C,3,8,PROPERTY WITH NO USE,<Null>,<Null>,<Null>,1049833,177978,40.654943,-73.763638,<Null>
118,Point,113,1aa256c00d1d5f6bdd5484fc6eafad67,4,13433,5,4134330005,4134330005,413,<Null>,150 ROAD,150 ROAD,<Null>,DCAS,1520,NO USE-VACANT LAND,C,3,8,PROPERTY WITH NO USE,<Null>,<Null>,<Null>,1049767,178366,40.656008,-73.763872,<Null>
119,Point,118,1c659d9e664ee2cb667b8a962d699e0b,4,2545,54,4025450054,4025450054,402,<Null>,48 STREET,48 STREET,<Null>,DCAS,1520,NO USE-VACANT LAND,C,3,8,PROPERTY WITH NO USE,<Null>,<Null>,<Null>,1006617,205498,40.730693,-73.919297,<Null>
120,Point,121,1d073fea99d406fbe474701472278874,4,312,17,4003120017,4003120017,402,<Null>,LAUREL HILL BOULEVARD,LAUREL HILL BOULEVARD,<Null>,DCAS,1520,NO USE-VACANT LAND,C,3,8,PROPERTY WITH NO USE,<Null>,<Null>,<Null>,1001212,206622,40.73379,-73.938796,<Null>
121,Point,131,1fde83f9cdbb8a728cef5edb9930e422,4,14260,85,4142600085,4142600085,413,<Null>,<Null>,<Null>,<Null>,DSBS,1520,NO USE-VACANT LAND,C,3,8,PROPERTY WITH NO USE,<Null>,<Null>,<Null>,1045728,180682,40.662394,-73.778407,<Null>
122,Point,136,20859cdc952def322c0a3b361a8d600e,4,2602,325,4026020325,4026020325,405,<Null>,49 PLACE,49 PLACE,<Null>,DCAS,1520,NO USE-VACANT LAND,C,3,8,PROPERTY WITH NO USE,<Null>,<Null>,<Null>,1006171,201822,40.720605,-73.920919,<Null>
125,Point,160,25bf944bd80c1c1964b0e39ac7da2f1b,4,13433,23,4134330023,4134330023,413,<Null>,SPRINGFIELD BOULEVARD,SPRINGFIELD BOULEVARD,<Null>,DCAS,1520,NO USE-VACANT LAND,C,3,8,PROPERTY WITH NO USE,<Null>,<Null>,<Null>,1049943,178228,40.655628,-73.763239,<Null>
128,Point,193,2c1d5a43c4c8283ddfd88972a2449528,4,13433,15,4134330015,4134330015,413,<Null>,150 ROAD,150 ROAD,<Null>,DCAS,1520,NO USE-VACANT LAND,C,3,8,PROPERTY WITH NO USE,<Null>,<Null>,<Null>,1049885,178277,40.655763,-73.763447,<Null>
129,Point,202,3026f3316ac8f3bb3b03d2c3eb432813,4,2599,45,4025990045,4025990045,405,<Null>,RUST STREET,RUST STREET,<Null>,DCAS,1520,NO USE-VACANT LAND,C,3,8,PROPERTY WITH NO USE,<Null>,<Null>,<Null>,1008519,201869,40.720727,-73.912448,<Null>
133,Point,240,3b773cf366994226017a5671bcd504dd,4,13432,26,4134320026,4134320026,413,<Null>,150 AVENUE,150 AVENUE,<Null>,DCAS,1520,NO USE-VACANT LAND,C,3,8,PROPERTY WITH NO USE,<Null>,<Null>,<Null>,1049993,178508,40.656396,-73.763056,<Null>
134,Point,256,3e641eabe9ffa645be788e0dbdfee437,4,13432,59,4134320059,4134320059,413,<Null>,150 ROAD,150 ROAD,<Null>,DCAS,1520,NO USE-VACANT LAND,C,3,8,PROPERTY WITH NO USE,<Null>,<Null>,<Null>,1049700,178528,40.656453,-73.764112,<Null>
135,Point,259,3ee1b2e4331c6b06644be82117b15090,4,13419,1,4134190001,4134190001,413,18112,150 DRIVE,18112 150 DRIVE,<Null>,DCAS,1520,NO USE-VACANT LAND,C,3,8,PROPERTY WITH NO USE,<Null>,<Null>,<Null>,1049398,178167,40.655465,-73.765203,<Null>
136,Point,261,3f3859283b7baf5720707cb081bf6a7a,4,13432,28,4134320028,4134320028,413,<Null>,SPRINGFIELD BOULEVARD,SPRINGFIELD BOULEVARD,<Null>,DCAS,1520,NO USE-VACANT LAND,C,3,8,PROPERTY WITH NO USE,<Null>,<Null>,<Null>,1050063,178509,40.656398,-73.762803,<Null>
138,Point,266,4101e302b80b0e808c13f9eea8dedb76,4,13433,20,4134330020,4134330020,413,<Null>,150 ROAD,150 ROAD,<Null>,DCAS,1520,NO USE-VACANT LAND,C,3,8,PROPERTY WITH NO USE,<Null>,<Null>,<Null>,1049971,178289,40.655795,-73.763137,<Null>
139,Point,291,49728c2c767b45513ec3d61b01a2094f,4,13432,20,4134320020,4134320020,413,<Null>,SPRINGFIELD BOULEVARD,SPRINGFIELD BOULEVARD,<Null>,DCAS,1520,NO USE-VACANT LAND,C,3,8,PROPERTY WITH NO USE,<Null>,<Null>,<Null>,1049887,178541,40.656488,-73.763437,<Null>
143,Point,322,534de2ab82331ea2f7034400325029a9,4,2575,58,4025750058,4025750058,402,<Null>,56 ROAD,56 ROAD,<Null>,DCAS,1520,NO USE-VACANT LAND,C,3,8,PROPERTY WITH NO USE,<Null>,<Null>,<Null>,1006598,203789,40.726002,-73.919372,<Null>
145,Point,340,584d5e7f2ec60bb8473c7e34cef002e5,4,13433,10,4134330010,4134330010,413,<Null>,150 ROAD,150 ROAD,<Null>,DCAS,1520,NO USE-VACANT LAND,C,3,8,PROPERTY WITH NO USE,<Null>,<Null>,<Null>,1049827,178318,40.655876,-73.763656,<Null>
147,Point,343,58f76f538925263f360033fba8e21b85,4,2552,142,4025520142,4025520142,402,<Null>,56 ROAD,56 ROAD,<Null>,DCAS,1520,NO USE-VACANT LAND,C,3,8,PROPERTY WITH NO USE,<Null>,<Null>,<Null>,1006238,203812,40.726067,-73.92067,<Null>
148,Point,353,5b5f443b1bf306ecb9c020a5a48c8053,4,2611,80,4026110080,4026110080,405,<Null>,GRAND AVENUE,GRAND AVENUE,<Null>,DCAS,1520,NO USE-VACANT LAND,C,3,8,PROPERTY WITH NO USE,<Null>,<Null>,<Null>,1005797,200311,40.716458,-73.922273,<Null>
149,Point,355,5bedc0ceb93ebd5a2fb22c0f4d19e133,4,2575,70,4025750070,4025750070,402,3,56 ROAD,3 56 ROAD,<Null>,DCAS,1520,NO USE-VACANT LAND,C,3,8,PROPERTY WITH NO USE,<Null>,<Null>,<Null>,1006968,203697,40.725749,-73.918037,<Null>
150,Point,357,5d25437af6fa3b845f9ec2601ec1105f,4,1210,34,4012100034,4012100034,402,<Null>,38 AVENUE,38 AVENUE,<Null>,DCAS,1520,NO USE-VACANT LAND,C,3,8,PROPERTY WITH NO USE,<Null>,<Null>,<Null>,1009985,212396,40.749617,-73.907119,<Null>
152,Point,382,642349c40cea2caa8a9cb7d0ded9e537,4,13433,2,4134330002,4134330002,413,<Null>,150 ROAD,150 ROAD,<Null>,DCAS,1520,NO USE-VACANT LAND,C,3,8,PROPERTY WITH NO USE,<Null>,<Null>,<Null>,1049712,178402,40.656107,-73.764069,<Null>
153,Point,387,6534948273312d06dcb3ea34aa69dc8a,4,2552,100,4025520100,4025520100,402,<Null>,56 ROAD,56 ROAD,<Null>,DCAS,1520,NO USE-VACANT LAND,C,3,8,PROPERTY WITH NO USE,<Null>,<Null>,<Null>,1005655,203954,40.726458,-73.922773,<Null>
155,Point,402,6b98ac877eb5a03bce43236f4ef21c51,4,13432,67,4134320067,4134320067,413,<Null>,150 ROAD,150 ROAD,<Null>,DCAS,1520,NO USE-VACANT LAND,C,3,8,PROPERTY WITH NO USE,<Null>,<Null>,<Null>,1049642,178527,40.656451,-73.764321,<Null>
156,Point,434,746443541e42448265708ba7ede00768,4,2622,100,4026220100,4026220100,405,<Null>,RUST STREET,RUST STREET,<Null>,DCAS,1520,NO USE-VACANT LAND,C,3,8,PROPERTY WITH NO USE,<Null>,<Null>,<Null>,1009171,200923,40.718129,-73.910099,<Null>
157,Point,452,78b7add6d719b90b1de4b3a4a0512b8b,4,13432,65,4134320065,4134320065,413,<Null>,150 ROAD,150 ROAD,<Null>,DCAS,1520,NO USE-VACANT LAND,C,3,8,PROPERTY WITH NO USE,<Null>,<Null>,<Null>,1049666,178519,40.656429,-73.764234,<Null>
165,Point,545,8d4689ecd24c9efa620d3fac2f9a4321,4,13433,41,4134330041,4134330041,413,<Null>,SPRINGFIELD BOULEVARD,SPRINGFIELD BOULEVARD,<Null>,DCAS,1520,NO USE-VACANT LAND,C,3,8,PROPERTY WITH NO USE,<Null>,<Null>,<Null>,1049829,177943,40.654847,-73.763652,<Null>
169,Point,568,93427df100769e290d02af38657408e9,4,1210,33,4012100033,4012100033,402,<Null>,56 STREET,56 STREET,<Null>,DCAS,1520,NO USE-VACANT LAND,C,3,8,PROPERTY WITH NO USE,<Null>,<Null>,<Null>,1010069,212339,40.749461,-73.906816,<Null>
170,Point,583,9645253dcdf975b0d29858cc59be8353,4,13432,21,4134320021,4134320021,413,<Null>,SPRINGFIELD BOULEVARD,SPRINGFIELD BOULEVARD,<Null>,DCAS,1520,NO USE-VACANT LAND,C,3,8,PROPERTY WITH NO USE,<Null>,<Null>,<Null>,1049919,178536,40.656474,-73.763322,<Null>
175,Point,616,9de0dd3f7bb6cafec16ecd39673c1f11,4,2575,75,4025750075,4025750075,402,<Null>,56 ROAD,56 ROAD,<Null>,DCAS,1520,NO USE-VACANT LAND,C,3,8,PROPERTY WITH NO USE,<Null>,<Null>,<Null>,1007019,203678,40.725697,-73.917853,<Null>
177,Point,669,ad721ee75d271c239b200279430b02cd,4,13433,34,4134330034,4134330034,413,<Null>,SPRINGFIELD BOULEVARD,SPRINGFIELD BOULEVARD,<Null>,DCAS,1520,NO USE-VACANT LAND,C,3,8,PROPERTY WITH NO USE,<Null>,<Null>,<Null>,1049869,178051,40.655143,-73.763507,<Null>
184,Point,742,c068e4d248e11ce79a91553c48658a37,4,13433,57,4134330057,4134330057,413,<Null>,183 STREET,183 STREET,<Null>,DCAS,1520,NO USE-VACANT LAND,C,3,8,PROPERTY WITH NO USE,<Null>,<Null>,<Null>,1049744,178038,40.655108,-73.763958,<Null>
186,Point,749,c20b36114b315d4af3377b1b1eccf44d,4,10352,98,4103520098,4103520098,412,<Null>,JAMAICA AVENUE,JAMAICA AVENUE,<Null>,DCAS,1520,NO USE-VACANT LAND,C,3,8,PROPERTY WITH NO USE,<Null>,<Null>,<Null>,1046939,197875,40.709576,-73.773882,<Null>
187,Point,752,c2cdc7d7fc093deef02ee10bf25808b8,4,13433,59,4134330059,4134330059,413,<Null>,183 STREET,183 STREET,<Null>,DCAS,1520,NO USE-VACANT LAND,C,3,8,PROPERTY WITH NO USE,<Null>,<Null>,<Null>,1049737,178082,40.655229,-73.763982,<Null>
189,Point,766,c4dda171572cea7820e469e8c7f4fc37,4,13420,8,4134200008,4134200008,413,<Null>,ROCKAWAY BOULEV,ROCKAWAY BOULEV,<Null>,DCAS,1520,NO USE-VACANT LAND,C,3,8,PROPERTY WITH NO USE,<Null>,<Null>,<Null>,1049611,177954,40.654878,-73.764438,<Null>
191,Point,777,ca36a612d4421b99ad071f4d45f2fbf6,4,70,45,4000700045,4000700045,402,<Null>,51 AVENUE,51 AVENUE,UNDER MIDTOWN TUNNEL EXPWY,DCAS,1520,NO USE-VACANT LAND,C,3,8,PROPERTY WITH NO USE,<Null>,<Null>,<Null>,998518,209413,40.741456,-73.948511,<Null>
193,Point,785,cd1624a89262a084d4fea33a96d08d12,4,13432,30,4134320030,4134320030,413,<Null>,SPRINGFIELD BOULEVARD,SPRINGFIELD BOULEVARD,<Null>,DCAS,1520,NO USE-VACANT LAND,C,3,8,PROPERTY WITH NO USE,<Null>,<Null>,<Null>,1050048,178473,40.6563,-73.762858,<Null>
197,Point,810,d1401dc6d8b851fcfb424d9ac496e3b6,4,13433,53,4134330053,4134330053,413,<Null>,183 STREET,183 STREET,<Null>,DCAS,1520,NO USE-VACANT LAND,C,3,8,PROPERTY WITH NO USE,<Null>,<Null>,<Null>,1049755,177953,40.654875,-73.763919,<Null>
198,Point,811,d1badf0d5872e1b1c992245c5d3f1f1e,4,13432,32,4134320032,4134320032,413,<Null>,SPRINGFIELD BOULEVARD,SPRINGFIELD BOULEVARD,<Null>,DCAS,1520,NO USE-VACANT LAND,C,3,8,PROPERTY WITH NO USE,<Null>,<Null>,<Null>,1050024,178418,40.656149,-73.762945,<Null>
200,Point,821,d44db52ec7d5411aa6ab83b44f2956aa,4,2552,75,4025520075,4025520075,402,<Null>,56 ROAD,56 ROAD,<Null>,DCAS,1520,NO USE-VACANT LAND,C,3,8,PROPERTY WITH NO USE,<Null>,<Null>,<Null>,1005682,203869,40.726224,-73.922676,<Null>
202,Point,875,e9b0b7422fa3dce678e3e42925218cbe,4,13433,69,4134330069,4134330069,413,<Null>,183 STREET,183 STREET,<Null>,DCAS,1520,NO USE-VACANT LAND,C,3,8,PROPERTY WITH NO USE,<Null>,<Null>,<Null>,1049718,178285,40.655786,-73.764049,<Null>
203,Point,895,eeb348f9babda5528e911bc8b73ffe36,4,13433,45,4134330045,4134330045,413,<Null>,SPRINGFIELD BOULEVARD,SPRINGFIELD BOULEVARD,<Null>,DCAS,1520,NO USE-VACANT LAND,C,3,8,PROPERTY WITH NO USE,<Null>,<Null>,<Null>,1049814,177943,40.654847,-73.763706,<Null>
204,Point,899,efae7e9807cc89c4e9c7d87d4afbbe5d,4,13433,36,4134330036,4134330036,413,<Null>,SPRINGFIELD BOULEVARD,SPRINGFIELD BOULEVARD,<Null>,DCAS,1520,NO USE-VACANT LAND,C,3,8,PROPERTY WITH NO USE,<Null>,<Null>,<Null>,1049821,178139,40.655385,-73.763679,<Null>
205,Point,900,efc64c49b6a1293463662e32404060bf,4,2599,49,4025990049,4025990049,405,<Null>,RUST STREET,RUST STREET,<Null>,DCAS,1520,NO USE-VACANT LAND,C,3,8,PROPERTY WITH NO USE,<Null>,<Null>,<Null>,1008542,201831,40.720623,-73.912365,<Null>
206,Point,902,f011d8f16b663e57a9066c38025dd938,4,14260,144,4142600144,4142600144,483,<Null>,SOUTH CONDUIT BOULEVARD,SOUTH CONDUIT BOULEVARD,PARK,DOT,1520,NO USE-VACANT LAND,C,3,8,PROPERTY WITH NO USE,<Null>,<Null>,<Null>,1030808,181581,40.664953,-73.832179,<Null>
207,Point,915,f427339a0c23471d1718a67ffbf1d1f1,4,13433,55,4134330055,4134330055,413,<Null>,183 STREET,183 STREET,<Null>,DCAS,1520,NO USE-VACANT LAND,C,3,8,PROPERTY WITH NO USE,<Null>,<Null>,<Null>,1049746,177992,40.654982,-73.763951,<Null>
208,Point,916,f457125767444867331a72ab327df89f,4,10059,10,4100590010,4100590010,412,14726,105 AVENUE,14726 105 AVENUE,<Null>,HPD,1520,NO USE-VACANT LAND,C,3,8,PROPERTY WITH NO USE,<Null>,D,<Null>,1038919,192933,40.696065,-73.80285,<Null>
213,Point,955,fd21b0b4c2399350254bb9142e0e046c,4,2575,244,4025750244,4025750244,402,<Null>,49 LANE,49 LANE,<Null>,DCAS,1520,NO USE-VACANT LAND,C,3,8,PROPERTY WITH NO USE,<Null>,<Null>,<Null>,1006979,202899,40.723559,-73.918,<Null>
215,Point,965,ff817f6007ac697876493f7dfd95165c,4,276,46,4002760046,4002760046,402,<Null>,QUEENS BOULEVARD,QUEENS BOULEVARD,<Null>,DCAS,1520,NO USE-VACANT LAND,C,3,8,PROPERTY WITH NO USE,<Null>,<Null>,<Null>,1002574,210976,40.745738,-73.93387,<Null>
216,Point,967,ff9e665a333cf970cd8b52ddd98cc5fa,4,13433,29,4134330029,4134330029,413,<Null>,SPRINGFIELD BOULEVARD,SPRINGFIELD BOULEVARD,<Null>,DCAS,1520,NO USE-VACANT LAND,C,3,8,PROPERTY WITH NO USE,<Null>,<Null>,<Null>,1049903,178139,40.655384,-73.763384,<Null>
221,Point,31,0790c88abcbb66f07cc6aa2a7a3aa7f3,4,13432,23,4134320023,4134320023,413,<Null>,150 AVENUE,150 AVENUE,<Null>,DCAS,1520,NO USE-VACANT LAND,C,3,8,PROPERTY WITH NO USE,<Null>,<Null>,<Null>,1049957,178524,40.65644,-73.763185,<Null>
222,Point,36,07f380ab2b370c7d8786ccbaad0509fb,4,13433,35,4134330035,4134330035,413,<Null>,SPRINGFIELD BOULEVARD,SPRINGFIELD BOULEVARD,<Null>,DCAS,1520,NO USE-VACANT LAND,C,3,8,PROPERTY WITH NO USE,<Null>,<Null>,<Null>,1049833,177978,40.654943,-73.763638,<Null>
227,Point,113,1aa256c00d1d5f6bdd5484fc6eafad67,4,13433,5,4134330005,4134330005,413,<Null>,150 ROAD,150 ROAD,<Null>,DCAS,1520,NO USE-VACANT LAND,C,3,8,PROPERTY WITH NO USE,<Null>,<Null>,<Null>,1049767,178366,40.656008,-73.763872,<Null>
228,Point,118,1c659d9e664ee2cb667b8a962d699e0b,4,2545,54,4025450054,4025450054,402,<Null>,48 STREET,48 STREET,<Null>,DCAS,1520,NO USE-VACANT LAND,C,3,8,PROPERTY WITH NO USE,<Null>,<Null>,<Null>,1006617,205498,40.730693,-73.919297,<Null>
229,Point,121,1d073fea99d406fbe474701472278874,4,312,17,4003120017,4003120017,402,<Null>,LAUREL HILL BOULEVARD,LAUREL HILL BOULEVARD,<Null>,DCAS,1520,NO USE-VACANT LAND,C,3,8,PROPERTY WITH NO USE,<Null>,<Null>,<Null>,1001212,206622,40.73379,-73.938796,<Null>
230,Point,131,1fde83f9cdbb8a728cef5edb9930e422,4,14260,85,4142600085,4142600085,413,<Null>,<Null>,<Null>,<Null>,DSBS,1520,NO USE-VACANT LAND,C,3,8,PROPERTY WITH NO USE,<Null>,<Null>,<Null>,1045728,180682,40.662394,-73.778407,<Null>
231,Point,136,20859cdc952def322c0a3b361a8d600e,4,2602,325,4026020325,4026020325,405,<Null>,49 PLACE,49 PLACE,<Null>,DCAS,1520,NO USE-VACANT LAND,C,3,8,PROPERTY WITH NO USE,<Null>,<Null>,<Null>,1006171,201822,40.720605,-73.920919,<Null>
234,Point,160,25bf944bd80c1c1964b0e39ac7da2f1b,4,13433,23,4134330023,4134330023,413,<Null>,SPRINGFIELD BOULEVARD,SPRINGFIELD BOULEVARD,<Null>,DCAS,1520,NO USE-VACANT LAND,C,3,8,PROPERTY WITH NO USE,<Null>,<Null>,<Null>,1049943,178228,40.655628,-73.763239,<Null>
237,Point,193,2c1d5a43c4c8283ddfd88972a2449528,4,13433,15,4134330015,4134330015,413,<Null>,150 ROAD,150 ROAD,<Null>,DCAS,1520,NO USE-VACANT LAND,C,3,8,PROPERTY WITH NO USE,<Null>,<Null>,<Null>,1049885,178277,40.655763,-73.763447,<Null>
238,Point,202,3026f3316ac8f3bb3b03d2c3eb432813,4,2599,45,4025990045,4025990045,405,<Null>,RUST STREET,RUST STREET,<Null>,DCAS,1520,NO USE-VACANT LAND,C,3,8,PROPERTY WITH NO USE,<Null>,<Null>,<Null>,1008519,201869,40.720727,-73.912448,<Null>
242,Point,240,3b773cf366994226017a5671bcd504dd,4,13432,26,4134320026,4134320026,413,<Null>,150 AVENUE,150 AVENUE,<Null>,DCAS,1520,NO USE-VACANT LAND,C,3,8,PROPERTY WITH NO USE,<Null>,<Null>,<Null>,1049993,178508,40.656396,-73.763056,<Null>
243,Point,256,3e641eabe9ffa645be788e0dbdfee437,4,13432,59,4134320059,4134320059,413,<Null>,150 ROAD,150 ROAD,<Null>,DCAS,1520,NO USE-VACANT LAND,C,3,8,PROPERTY WITH NO USE,<Null>,<Null>,<Null>,1049700,178528,40.656453,-73.764112,<Null>
244,Point,259,3ee1b2e4331c6b06644be82117b15090,4,13419,1,4134190001,4134190001,413,18112,150 DRIVE,18112 150 DRIVE,<Null>,DCAS,1520,NO USE-VACANT LAND,C,3,8,PROPERTY WITH NO USE,<Null>,<Null>,<Null>,1049398,178167,40.655465,-73.765203,<Null>
245,Point,261,3f3859283b7baf5720707cb081bf6a7a,4,13432,28,4134320028,4134320028,413,<Null>,SPRINGFIELD BOULEVARD,SPRINGFIELD BOULEVARD,<Null>,DCAS,1520,NO USE-VACANT LAND,C,3,8,PROPERTY WITH NO USE,<Null>,<Null>,<Null>,1050063,178509,40.656398,-73.762803,<Null>
247,Point,266,4101e302b80b0e808c13f9eea8dedb76,4,13433,20,4134330020,4134330020,413,<Null>,150 ROAD,150 ROAD,<Null>,DCAS,1520,NO USE-VACANT LAND,C,3,8,PROPERTY WITH NO USE,<Null>,<Null>,<Null>,1049971,178289,40.655795,-73.763137,<Null>
248,Point,291,49728c2c767b45513ec3d61b01a2094f,4,13432,20,4134320020,4134320020,413,<Null>,SPRINGFIELD BOULEVARD,SPRINGFIELD BOULEVARD,<Null>,DCAS,1520,NO USE-VACANT LAND,C,3,8,PROPERTY WITH NO USE,<Null>,<Null>,<Null>,1049887,178541,40.656488,-73.763437,<Null>
252,Point,322,534de2ab82331ea2f7034400325029a9,4,2575,58,4025750058,4025750058,402,<Null>,56 ROAD,56 ROAD,<Null>,DCAS,1520,NO USE-VACANT LAND,C,3,8,PROPERTY WITH NO USE,<Null>,<Null>,<Null>,1006598,203789,40.726002,-73.919372,<Null>
254,Point,340,584d5e7f2ec60bb8473c7e34cef002e5,4,13433,10,4134330010,4134330010,413,<Null>,150 ROAD,150 ROAD,<Null>,DCAS,1520,NO USE-VACANT LAND,C,3,8,PROPERTY WITH NO USE,<Null>,<Null>,<Null>,1049827,178318,40.655876,-73.763656,<Null>
256,Point,343,58f76f538925263f360033fba8e21b85,4,2552,142,4025520142,4025520142,402,<Null>,56 ROAD,56 ROAD,<Null>,DCAS,1520,NO USE-VACANT LAND,C,3,8,PROPERTY WITH NO USE,<Null>,<Null>,<Null>,1006238,203812,40.726067,-73.92067,<Null>
257,Point,353,5b5f443b1bf306ecb9c020a5a48c8053,4,2611,80,4026110080,4026110080,405,<Null>,GRAND AVENUE,GRAND AVENUE,<Null>,DCAS,1520,NO USE-VACANT LAND,C,3,8,PROPERTY WITH NO USE,<Null>,<Null>,<Null>,1005797,200311,40.716458,-73.922273,<Null>
258,Point,355,5bedc0ceb93ebd5a2fb22c0f4d19e133,4,2575,70,4025750070,4025750070,402,3,56 ROAD,3 56 ROAD,<Null>,DCAS,1520,NO USE-VACANT LAND,C,3,8,PROPERTY WITH NO USE,<Null>,<Null>,<Null>,1006968,203697,40.725749,-73.918037,<Null>
259,Point,357,5d25437af6fa3b845f9ec2601ec1105f,4,1210,34,4012100034,4012100034,402,<Null>,38 AVENUE,38 AVENUE,<Null>,DCAS,1520,NO USE-VACANT LAND,C,3,8,PROPERTY WITH NO USE,<Null>,<Null>,<Null>,1009985,212396,40.749617,-73.907119,<Null>
261,Point,382,642349c40cea2caa8a9cb7d0ded9e537,4,13433,2,4134330002,4134330002,413,<Null>,150 ROAD,150 ROAD,<Null>,DCAS,1520,NO USE-VACANT LAND,C,3,8,PROPERTY WITH NO USE,<Null>,<Null>,<Null>,1049712,178402,40.656107,-73.764069,<Null>
262,Point,387,6534948273312d06dcb3ea34aa69dc8a,4,2552,100,4025520100,4025520100,402,<Null>,56 ROAD,56 ROAD,<Null>,DCAS,1520,NO USE-VACANT LAND,C,3,8,PROPERTY WITH NO USE,<Null>,<Null>,<Null>,1005655,203954,40.726458,-73.922773,<Null>
264,Point,402,6b98ac877eb5a03bce43236f4ef21c51,4,13432,67,4134320067,4134320067,413,<Null>,150 ROAD,150 ROAD,<Null>,DCAS,1520,NO USE-VACANT LAND,C,3,8,PROPERTY WITH NO USE,<Null>,<Null>,<Null>,1049642,178527,40.656451,-73.764321,<Null>
265,Point,434,746443541e42448265708ba7ede00768,4,2622,100,4026220100,4026220100,405,<Null>,RUST STREET,RUST STREET,<Null>,DCAS,1520,NO USE-VACANT LAND,C,3,8,PROPERTY WITH NO USE,<Null>,<Null>,<Null>,1009171,200923,40.718129,-73.910099,<Null>
266,Point,452,78b7add6d719b90b1de4b3a4a0512b8b,4,13432,65,4134320065,4134320065,413,<Null>,150 ROAD,150 ROAD,<Null>,DCAS,1520,NO USE-VACANT LAND,C,3,8,PROPERTY WITH NO USE,<Null>,<Null>,<Null>,1049666,178519,40.656429,-73.764234,<Null>
274,Point,545,8d4689ecd24c9efa620d3fac2f9a4321,4,13433,41,4134330041,4134330041,413,<Null>,SPRINGFIELD BOULEVARD,SPRINGFIELD BOULEVARD,<Null>,DCAS,1520,NO USE-VACANT LAND,C,3,8,PROPERTY WITH NO USE,<Null>,<Null>,<Null>,1049829,177943,40.654847,-73.763652,<Null>
278,Point,568,93427df100769e290d02af38657408e9,4,1210,33,4012100033,4012100033,402,<Null>,56 STREET,56 STREET,<Null>,DCAS,1520,NO USE-VACANT LAND,C,3,8,PROPERTY WITH NO USE,<Null>,<Null>,<Null>,1010069,212339,40.749461,-73.906816,<Null>
279,Point,583,9645253dcdf975b0d29858cc59be8353,4,13432,21,4134320021,4134320021,413,<Null>,SPRINGFIELD BOULEVARD,SPRINGFIELD BOULEVARD,<Null>,DCAS,1520,NO USE-VACANT LAND,C,3,8,PROPERTY WITH NO USE,<Null>,<Null>,<Null>,1049919,178536,40.656474,-73.763322,<Null>
284,Point,616,9de0dd3f7bb6cafec16ecd39673c1f11,4,2575,75,4025750075,4025750075,402,<Null>,56 ROAD,56 ROAD,<Null>,DCAS,1520,NO USE-VACANT LAND,C,3,8,PROPERTY WITH NO USE,<Null>,<Null>,<Null>,1007019,203678,40.725697,-73.917853,<Null>
286,Point,669,ad721ee75d271c239b200279430b02cd,4,13433,34,4134330034,4134330034,413,<Null>,SPRINGFIELD BOULEVARD,SPRINGFIELD BOULEVARD,<Null>,DCAS,1520,NO USE-VACANT LAND,C,3,8,PROPERTY WITH NO USE,<Null>,<Null>,<Null>,1049869,178051,40.655143,-73.763507,<Null>
293,Point,742,c068e4d248e11ce79a91553c48658a37,4,13433,57,4134330057,4134330057,413,<Null>,183 STREET,183 STREET,<Null>,DCAS,1520,NO USE-VACANT LAND,C,3,8,PROPERTY WITH NO USE,<Null>,<Null>,<Null>,1049744,178038,40.655108,-73.763958,<Null>
295,Point,749,c20b36114b315d4af3377b1b1eccf44d,4,10352,98,4103520098,4103520098,412,<Null>,JAMAICA AVENUE,JAMAICA AVENUE,<Null>,DCAS,1520,NO USE-VACANT LAND,C,3,8,PROPERTY WITH NO USE,<Null>,<Null>,<Null>,1046939,197875,40.709576,-73.773882,<Null>
296,Point,752,c2cdc7d7fc093deef02ee10bf25808b8,4,13433,59,4134330059,4134330059,413,<Null>,183 STREET,183 STREET,<Null>,DCAS,1520,NO USE-VACANT LAND,C,3,8,PROPERTY WITH NO USE,<Null>,<Null>,<Null>,1049737,178082,40.655229,-73.763982,<Null>
298,Point,766,c4dda171572cea7820e469e8c7f4fc37,4,13420,8,4134200008,4134200008,413,<Null>,ROCKAWAY BOULEV,ROCKAWAY BOULEV,<Null>,DCAS,1520,NO USE-VACANT LAND,C,3,8,PROPERTY WITH NO USE,<Null>,<Null>,<Null>,1049611,177954,40.654878,-73.764438,<Null>
300,Point,777,ca36a612d4421b99ad071f4d45f2fbf6,4,70,45,4000700045,4000700045,402,<Null>,51 AVENUE,51 AVENUE,UNDER MIDTOWN TUNNEL EXPWY,DCAS,1520,NO USE-VACANT LAND,C,3,8,PROPERTY WITH NO USE,<Null>,<Null>,<Null>,998518,209413,40.741456,-73.948511,<Null>
302,Point,785,cd1624a89262a084d4fea33a96d08d12,4,13432,30,4134320030,4134320030,413,<Null>,SPRINGFIELD BOULEVARD,SPRINGFIELD BOULEVARD,<Null>,DCAS,1520,NO USE-VACANT LAND,C,3,8,PROPERTY WITH NO USE,<Null>,<Null>,<Null>,1050048,178473,40.6563,-73.762858,<Null>
306,Point,810,d1401dc6d8b851fcfb424d9ac496e3b6,4,13433,53,4134330053,4134330053,413,<Null>,183 STREET,183 STREET,<Null>,DCAS,1520,NO USE-VACANT LAND,C,3,8,PROPERTY WITH NO USE,<Null>,<Null>,<Null>,1049755,177953,40.654875,-73.763919,<Null>
307,Point,811,d1badf0d5872e1b1c992245c5d3f1f1e,4,13432,32,4134320032,4134320032,413,<Null>,SPRINGFIELD BOULEVARD,SPRINGFIELD BOULEVARD,<Null>,DCAS,1520,NO USE-VACANT LAND,C,3,8,PROPERTY WITH NO USE,<Null>,<Null>,<Null>,1050024,178418,40.656149,-73.762945,<Null>
309,Point,821,d44db52ec7d5411aa6ab83b44f2956aa,4,2552,75,4025520075,4025520075,402,<Null>,56 ROAD,56 ROAD,<Null>,DCAS,1520,NO USE-VACANT LAND,C,3,8,PROPERTY WITH NO USE,<Null>,<Null>,<Null>,1005682,203869,40.726224,-73.922676,<Null>
311,Point,875,e9b0b7422fa3dce678e3e42925218cbe,4,13433,69,4134330069,4134330069,413,<Null>,183 STREET,183 STREET,<Null>,DCAS,1520,NO USE-VACANT LAND,C,3,8,PROPERTY WITH NO USE,<Null>,<Null>,<Null>,1049718,178285,40.655786,-73.764049,<Null>
312,Point,895,eeb348f9babda5528e911bc8b73ffe36,4,13433,45,4134330045,4134330045,413,<Null>,SPRINGFIELD BOULEVARD,SPRINGFIELD BOULEVARD,<Null>,DCAS,1520,NO USE-VACANT LAND,C,3,8,PROPERTY WITH NO USE,<Null>,<Null>,<Null>,1049814,177943,40.654847,-73.763706,<Null>
313,Point,899,efae7e9807cc89c4e9c7d87d4afbbe5d,4,13433,36,4134330036,4134330036,413,<Null>,SPRINGFIELD BOULEVARD,SPRINGFIELD BOULEVARD,<Null>,DCAS,1520,NO USE-VACANT LAND,C,3,8,PROPERTY WITH NO USE,<Null>,<Null>,<Null>,1049821,178139,40.655385,-73.763679,<Null>
314,Point,900,efc64c49b6a1293463662e32404060bf,4,2599,49,4025990049,4025990049,405,<Null>,RUST STREET,RUST STREET,<Null>,DCAS,1520,NO USE-VACANT LAND,C,3,8,PROPERTY WITH NO USE,<Null>,<Null>,<Null>,1008542,201831,40.720623,-73.912365,<Null>
315,Point,902,f011d8f16b663e57a9066c38025dd938,4,14260,144,4142600144,4142600144,483,<Null>,SOUTH CONDUIT BOULEVARD,SOUTH CONDUIT BOULEVARD,PARK,DOT,1520,NO USE-VACANT LAND,C,3,8,PROPERTY WITH NO USE,<Null>,<Null>,<Null>,1030808,181581,40.664953,-73.832179,<Null>
316,Point,915,f427339a0c23471d1718a67ffbf1d1f1,4,13433,55,4134330055,4134330055,413,<Null>,183 STREET,183 STREET,<Null>,DCAS,1520,NO USE-VACANT LAND,C,3,8,PROPERTY WITH NO USE,<Null>,<Null>,<Null>,1049746,177992,40.654982,-73.763951,<Null>
317,Point,916,f457125767444867331a72ab327df89f,4,10059,10,4100590010,4100590010,412,14726,105 AVENUE,14726 105 AVENUE,<Null>,HPD,1520,NO USE-VACANT LAND,C,3,8,PROPERTY WITH NO USE,<Null>,D,<Null>,1038919,192933,40.696065,-73.80285,<Null>
322,Point,955,fd21b0b4c2399350254bb9142e0e046c,4,2575,244,4025750244,4025750244,402,<Null>,49 LANE,49 LANE,<Null>,DCAS,1520,NO USE-VACANT LAND,C,3,8,PROPERTY WITH NO USE,<Null>,<Null>,<Null>,1006979,202899,40.723559,-73.918,<Null>
324,Point,965,ff817f6007ac697876493f7dfd95165c,4,276,46,4002760046,4002760046,402,<Null>,QUEENS BOULEVARD,QUEENS BOULEVARD,<Null>,DCAS,1520,NO USE-VACANT LAND,C,3,8,PROPERTY WITH NO USE,<Null>,<Null>,<Null>,1002574,210976,40.745738,-73.93387,<Null>
325,Point,967,ff9e665a333cf970cd8b52ddd98cc5fa,4,13433,29,4134330029,4134330029,413,<Null>,SPRINGFIELD BOULEVARD,SPRINGFIELD BOULEVARD,<Null>,DCAS,1520,NO USE-VACANT LAND,C,3,8,PROPERTY WITH NO USE,<Null>,<Null>,<Null>,1049903,178139,40.655384,-73.763384,<Null>
330,Point,31,0790c88abcbb66f07cc6aa2a7a3aa7f3,4,13432,23,4134320023,4134320023,413,<Null>,150 AVENUE,150 AVENUE,<Null>,DCAS,1520,NO USE-VACANT LAND,C,3,8,PROPERTY WITH NO USE,<Null>,<Null>,<Null>,1049957,178524,40.65644,-73.763185,<Null>
331,Point,36,07f380ab2b370c7d8786ccbaad0509fb,4,13433,35,4134330035,4134330035,413,<Null>,SPRINGFIELD BOULEVARD,SPRINGFIELD BOULEVARD,<Null>,DCAS,1520,NO USE-VACANT LAND,C,3,8,PROPERTY WITH NO USE,<Null>,<Null>,<Null>,1049833,177978,40.654943,-73.763638,<Null>
336,Point,113,1aa256c00d1d5f6bdd5484fc6eafad67,4,13433,5,4134330005,4134330005,413,<Null>,150 ROAD,150 ROAD,<Null>,DCAS,1520,NO USE-VACANT LAND,C,3,8,PROPERTY WITH NO USE,<Null>,<Null>,<Null>,1049767,178366,40.656008,-73.763872,<Null>
337,Point,118,1c659d9e664ee2cb667b8a962d699e0b,4,2545,54,4025450054,4025450054,402,<Null>,48 STREET,48 STREET,<Null>,DCAS,1520,NO USE-VACANT LAND,C,3,8,PROPERTY WITH NO USE,<Null>,<Null>,<Null>,1006617,205498,40.730693,-73.919297,<Null>
338,Point,121,1d073fea99d406fbe474701472278874,4,312,17,4003120017,4003120017,402,<Null>,LAUREL HILL BOULEVARD,LAUREL HILL BOULEVARD,<Null>,DCAS,1520,NO USE-VACANT LAND,C,3,8,PROPERTY WITH NO USE,<Null>,<Null>,<Null>,1001212,206622,40.73379,-73.938796,<Null>
339,Point,131,1fde83f9cdbb8a728cef5edb9930e422,4,14260,85,4142600085,4142600085,413,<Null>,<Null>,<Null>,<Null>,DSBS,1520,NO USE-VACANT LAND,C,3,8,PROPERTY WITH NO USE,<Null>,<Null>,<Null>,1045728,180682,40.662394,-73.778407,<Null>
340,Point,136,20859cdc952def322c0a3b361a8d600e,4,2602,325,4026020325,4026020325,405,<Null>,49 PLACE,49 PLACE,<Null>,DCAS,1520,NO USE-VACANT LAND,C,3,8,PROPERTY WITH NO USE,<Null>,<Null>,<Null>,1006171,201822,40.720605,-73.920919,<Null>
343,Point,160,25bf944bd80c1c1964b0e39ac7da2f1b,4,13433,23,4134330023,4134330023,413,<Null>,SPRINGFIELD BOULEVARD,SPRINGFIELD BOULEVARD,<Null>,DCAS,1520,NO USE-VACANT LAND,C,3,8,PROPERTY WITH NO USE,<Null>,<Null>,<Null>,1049943,178228,40.655628,-73.763239,<Null>
346,Point,193,2c1d5a43c4c8283ddfd88972a2449528,4,13433,15,4134330015,4134330015,413,<Null>,150 ROAD,150 ROAD,<Null>,DCAS,1520,NO USE-VACANT LAND,C,3,8,PROPERTY WITH NO USE,<Null>,<Null>,<Null>,1049885,178277,40.655763,-73.763447,<Null>
347,Point,202,3026f3316ac8f3bb3b03d2c3eb432813,4,2599,45,4025990045,4025990045,405,<Null>,RUST STREET,RUST STREET,<Null>,DCAS,1520,NO USE-VACANT LAND,C,3,8,PROPERTY WITH NO USE,<Null>,<Null>,<Null>,1008519,201869,40.720727,-73.912448,<Null>
351,Point,240,3b773cf366994226017a5671bcd504dd,4,13432,26,4134320026,4134320026,413,<Null>,150 AVENUE,150 AVENUE,<Null>,DCAS,1520,NO USE-VACANT LAND,C,3,8,PROPERTY WITH NO USE,<Null>,<Null>,<Null>,1049993,178508,40.656396,-73.763056,<Null>
352,Point,256,3e641eabe9ffa645be788e0dbdfee437,4,13432,59,4134320059,4134320059,413,<Null>,150 ROAD,150 ROAD,<Null>,DCAS,1520,NO USE-VACANT LAND,C,3,8,PROPERTY WITH NO USE,<Null>,<Null>,<Null>,1049700,178528,40.656453,-73.764112,<Null>
353,Point,259,3ee1b2e4331c6b06644be82117b15090,4,13419,1,4134190001,4134190001,413,18112,150 DRIVE,18112 150 DRIVE,<Null>,DCAS,1520,NO USE-VACANT LAND,C,3,8,PROPERTY WITH NO USE,<Null>,<Null>,<Null>,1049398,178167,40.655465,-73.765203,<Null>
354,Point,261,3f3859283b7baf5720707cb081bf6a7a,4,13432,28,4134320028,4134320028,413,<Null>,SPRINGFIELD BOULEVARD,SPRINGFIELD BOULEVARD,<Null>,DCAS,1520,NO USE-VACANT LAND,C,3,8,PROPERTY WITH NO USE,<Null>,<Null>,<Null>,1050063,178509,40.656398,-73.762803,<Null>
356,Point,266,4101e302b80b0e808c13f9eea8dedb76,4,13433,20,4134330020,4134330020,413,<Null>,150 ROAD,150 ROAD,<Null>,DCAS,1520,NO USE-VACANT LAND,C,3,8,PROPERTY WITH NO USE,<Null>,<Null>,<Null>,1049971,178289,40.655795,-73.763137,<Null>
357,Point,291,49728c2c767b45513ec3d61b01a2094f,4,13432,20,4134320020,4134320020,413,<Null>,SPRINGFIELD BOULEVARD,SPRINGFIELD BOULEVARD,<Null>,DCAS,1520,NO USE-VACANT LAND,C,3,8,PROPERTY WITH NO USE,<Null>,<Null>,<Null>,1049887,178541,40.656488,-73.763437,<Null>
361,Point,322,534de2ab82331ea2f7034400325029a9,4,2575,58,4025750058,4025750058,402,<Null>,56 ROAD,56 ROAD,<Null>,DCAS,1520,NO USE-VACANT LAND,C,3,8,PROPERTY WITH NO USE,<Null>,<Null>,<Null>,1006598,203789,40.726002,-73.919372,<Null>
363,Point,340,584d5e7f2ec60bb8473c7e34cef002e5,4,13433,10,4134330010,4134330010,413,<Null>,150 ROAD,150 ROAD,<Null>,DCAS,1520,NO USE-VACANT LAND,C,3,8,PROPERTY WITH NO USE,<Null>,<Null>,<Null>,1049827,178318,40.655876,-73.763656,<Null>
365,Point,343,58f76f538925263f360033fba8e21b85,4,2552,142,4025520142,4025520142,402,<Null>,56 ROAD,56 ROAD,<Null>,DCAS,1520,NO USE-VACANT LAND,C,3,8,PROPERTY WITH NO USE,<Null>,<Null>,<Null>,1006238,203812,40.726067,-73.92067,<Null>
366,Point,353,5b5f443b1bf306ecb9c020a5a48c8053,4,2611,80,4026110080,4026110080,405,<Null>,GRAND AVENUE,GRAND AVENUE,<Null>,DCAS,1520,NO USE-VACANT LAND,C,3,8,PROPERTY WITH NO USE,<Null>,<Null>,<Null>,1005797,200311,40.716458,-73.922273,<Null>
367,Point,355,5bedc0ceb93ebd5a2fb22c0f4d19e133,4,2575,70,4025750070,4025750070,402,3,56 ROAD,3 56 ROAD,<Null>,DCAS,1520,NO USE-VACANT LAND,C,3,8,PROPERTY WITH NO USE,<Null>,<Null>,<Null>,1006968,203697,40.725749,-73.918037,<Null>
368,Point,357,5d25437af6fa3b845f9ec2601ec1105f,4,1210,34,4012100034,4012100034,402,<Null>,38 AVENUE,38 AVENUE,<Null>,DCAS,1520,NO USE-VACANT LAND,C,3,8,PROPERTY WITH NO USE,<Null>,<Null>,<Null>,1009985,212396,40.749617,-73.907119,<Null>
370,Point,382,642349c40cea2caa8a9cb7d0ded9e537,4,13433,2,4134330002,4134330002,413,<Null>,150 ROAD,150 ROAD,<Null>,DCAS,1520,NO USE-VACANT LAND,C,3,8,PROPERTY WITH NO USE,<Null>,<Null>,<Null>,1049712,178402,40.656107,-73.764069,<Null>
371,Point,387,6534948273312d06dcb3ea34aa69dc8a,4,2552,100,4025520100,4025520100,402,<Null>,56 ROAD,56 ROAD,<Null>,DCAS,1520,NO USE-VACANT LAND,C,3,8,PROPERTY WITH NO USE,<Null>,<Null>,<Null>,1005655,203954,40.726458,-73.922773,<Null>
373,Point,402,6b98ac877eb5a03bce43236f4ef21c51,4,13432,67,4134320067,4134320067,413,<Null>,150 ROAD,150 ROAD,<Null>,DCAS,1520,NO USE-VACANT LAND,C,3,8,PROPERTY WITH NO USE,<Null>,<Null>,<Null>,1049642,178527,40.656451,-73.764321,<Null>
374,Point,434,746443541e42448265708ba7ede00768,4,2622,100,4026220100,4026220100,405,<Null>,RUST STREET,RUST STREET,<Null>,DCAS,1520,NO USE-VACANT LAND,C,3,8,PROPERTY WITH NO USE,<Null>,<Null>,<Null>,1009171,200923,40.718129,-73.910099,<Null>
375,Point,452,78b7add6d719b90b1de4b3a4a0512b8b,4,13432,65,4134320065,4134320065,413,<Null>,150 ROAD,150 ROAD,<Null>,DCAS,1520,NO USE-VACANT LAND,C,3,8,PROPERTY WITH NO USE,<Null>,<Null>,<Null>,1049666,178519,40.656429,-73.764234,<Null>
383,Point,545,8d4689ecd24c9efa620d3fac2f9a4321,4,13433,41,4134330041,4134330041,413,<Null>,SPRINGFIELD BOULEVARD,SPRINGFIELD BOULEVARD,<Null>,DCAS,1520,NO USE-VACANT LAND,C,3,8,PROPERTY WITH NO USE,<Null>,<Null>,<Null>,1049829,177943,40.654847,-73.763652,<Null>
387,Point,568,93427df100769e290d02af38657408e9,4,1210,33,4012100033,4012100033,402,<Null>,56 STREET,56 STREET,<Null>,DCAS,1520,NO USE-VACANT LAND,C,3,8,PROPERTY WITH NO USE,<Null>,<Null>,<Null>,1010069,212339,40.749461,-73.906816,<Null>
388,Point,583,9645253dcdf975b0d29858cc59be8353,4,13432,21,4134320021,4134320021,413,<Null>,SPRINGFIELD BOULEVARD,SPRINGFIELD BOULEVARD,<Null>,DCAS,1520,NO USE-VACANT LAND,C,3,8,PROPERTY WITH NO USE,<Null>,<Null>,<Null>,1049919,178536,40.656474,-73.763322,<Null>
393,Point,616,9de0dd3f7bb6cafec16ecd39673c1f11,4,2575,75,4025750075,4025750075,402,<Null>,56 ROAD,56 ROAD,<Null>,DCAS,1520,NO USE-VACANT LAND,C,3,8,PROPERTY WITH NO USE,<Null>,<Null>,<Null>,1007019,203678,40.725697,-73.917853,<Null>
395,Point,669,ad721ee75d271c239b200279430b02cd,4,13433,34,4134330034,4134330034,413,<Null>,SPRINGFIELD BOULEVARD,SPRINGFIELD BOULEVARD,<Null>,DCAS,1520,NO USE-VACANT LAND,C,3,8,PROPERTY WITH NO USE,<Null>,<Null>,<Null>,1049869,178051,40.655143,-73.763507,<Null>
402,Point,742,c068e4d248e11ce79a91553c48658a37,4,13433,57,4134330057,4134330057,413,<Null>,183 STREET,183 STREET,<Null>,DCAS,1520,NO USE-VACANT LAND,C,3,8,PROPERTY WITH NO USE,<Null>,<Null>,<Null>,1049744,178038,40.655108,-73.763958,<Null>
404,Point,749,c20b36114b315d4af3377b1b1eccf44d,4,10352,98,4103520098,4103520098,412,<Null>,JAMAICA AVENUE,JAMAICA AVENUE,<Null>,DCAS,1520,NO USE-VACANT LAND,C,3,8,PROPERTY WITH NO USE,<Null>,<Null>,<Null>,1046939,197875,40.709576,-73.773882,<Null>
405,Point,752,c2cdc7d7fc093deef02ee10bf25808b8,4,13433,59,4134330059,4134330059,413,<Null>,183 STREET,183 STREET,<Null>,DCAS,1520,NO USE-VACANT LAND,C,3,8,PROPERTY WITH NO USE,<Null>,<Null>,<Null>,1049737,178082,40.655229,-73.763982,<Null>
407,Point,766,c4dda171572cea7820e469e8c7f4fc37,4,13420,8,4134200008,4134200008,413,<Null>,ROCKAWAY BOULEV,ROCKAWAY BOULEV,<Null>,DCAS,1520,NO USE-VACANT LAND,C,3,8,PROPERTY WITH NO USE,<Null>,<Null>,<Null>,1049611,177954,40.654878,-73.764438,<Null>
409,Point,777,ca36a612d4421b99ad071f4d45f2fbf6,4,70,45,4000700045,4000700045,402,<Null>,51 AVENUE,51 AVENUE,UNDER MIDTOWN TUNNEL EXPWY,DCAS,1520,NO USE-VACANT LAND,C,3,8,PROPERTY WITH NO USE,<Null>,<Null>,<Null>,998518,209413,40.741456,-73.948511,<Null>
411,Point,785,cd1624a89262a084d4fea33a96d08d12,4,13432,30,4134320030,4134320030,413,<Null>,SPRINGFIELD BOULEVARD,SPRINGFIELD BOULEVARD,<Null>,DCAS,1520,NO USE-VACANT LAND,C,3,8,PROPERTY WITH NO USE,<Null>,<Null>,<Null>,1050048,178473,40.6563,-73.762858,<Null>
415,Point,810,d1401dc6d8b851fcfb424d9ac496e3b6,4,13433,53,4134330053,4134330053,413,<Null>,183 STREET,183 STREET,<Null>,DCAS,1520,NO USE-VACANT LAND,C,3,8,PROPERTY WITH NO USE,<Null>,<Null>,<Null>,1049755,177953,40.654875,-73.763919,<Null>
416,Point,811,d1badf0d5872e1b1c992245c5d3f1f1e,4,13432,32,4134320032,4134320032,413,<Null>,SPRINGFIELD BOULEVARD,SPRINGFIELD BOULEVARD,<Null>,DCAS,1520,NO USE-VACANT LAND,C,3,8,PROPERTY WITH NO USE,<Null>,<Null>,<Null>,1050024,178418,40.656149,-73.762945,<Null>
418,Point,821,d44db52ec7d5411aa6ab83b44f2956aa,4,2552,75,4025520075,4025520075,402,<Null>,56 ROAD,56 ROAD,<Null>,DCAS,1520,NO USE-VACANT LAND,C,3,8,PROPERTY WITH NO USE,<Null>,<Null>,<Null>,1005682,203869,40.726224,-73.922676,<Null>
420,Point,875,e9b0b7422fa3dce678e3e42925218cbe,4,13433,69,4134330069,4134330069,413,<Null>,183 STREET,183 STREET,<Null>,DCAS,1520,NO USE-VACANT LAND,C,3,8,PROPERTY WITH NO USE,<Null>,<Null>,<Null>,1049718,178285,40.655786,-73.764049,<Null>
421,Point,895,eeb348f9babda5528e911bc8b73ffe36,4,13433,45,4134330045,4134330045,413,<Null>,SPRINGFIELD BOULEVARD,SPRINGFIELD BOULEVARD,<Null>,DCAS,1520,NO USE-VACANT LAND,C,3,8,PROPERTY WITH NO USE,<Null>,<Null>,<Null>,1049814,177943,40.654847,-73.763706,<Null>
422,Point,899,efae7e9807cc89c4e9c7d87d4afbbe5d,4,13433,36,4134330036,4134330036,413,<Null>,SPRINGFIELD BOULEVARD,SPRINGFIELD BOULEVARD,<Null>,DCAS,1520,NO USE-VACANT LAND,C,3,8,PROPERTY WITH NO USE,<Null>,<Null>,<Null>,1049821,178139,40.655385,-73.763679,<Null>
423,Point,900,efc64c49b6a1293463662e32404060bf,4,2599,49,4025990049,4025990049,405,<Null>,RUST STREET,RUST STREET,<Null>,DCAS,1520,NO USE-VACANT LAND,C,3,8,PROPERTY WITH NO USE,<Null>,<Null>,<Null>,1008542,201831,40.720623,-73.912365,<Null>
424,Point,902,f011d8f16b663e57a9066c38025dd938,4,14260,144,4142600144,4142600144,483,<Null>,SOUTH CONDUIT BOULEVARD,SOUTH CONDUIT BOULEVARD,PARK,DOT,1520,NO USE-VACANT LAND,C,3,8,PROPERTY WITH NO USE,<Null>,<Null>,<Null>,1030808,181581,40.664953,-73.832179,<Null>
425,Point,915,f427339a0c23471d1718a67ffbf1d1f1,4,13433,55,4134330055,4134330055,413,<Null>,183 STREET,183 STREET,<Null>,DCAS,1520,NO USE-VACANT LAND,C,3,8,PROPERTY WITH NO USE,<Null>,<Null>,<Null>,1049746,177992,40.654982,-73.763951,<Null>
426,Point,916,f457125767444867331a72ab327df89f,4,10059,10,4100590010,4100590010,412,14726,105 AVENUE,14726 105 AVENUE,<Null>,HPD,1520,NO USE-VACANT LAND,C,3,8,PROPERTY WITH NO USE,<Null>,D,<Null>,1038919,192933,40.696065,-73.80285,<Null>
431,Point,955,fd21b0b4c2399350254bb9142e0e046c,4,2575,244,4025750244,4025750244,402,<Null>,49 LANE,49 LANE,<Null>,DCAS,1520,NO USE-VACANT LAND,C,3,8,PROPERTY WITH NO USE,<Null>,<Null>,<Null>,1006979,202899,40.723559,-73.918,<Null>
433,Point,965,ff817f6007ac697876493f7dfd95165c,4,276,46,4002760046,4002760046,402,<Null>,QUEENS BOULEVARD,QUEENS BOULEVARD,<Null>,DCAS,1520,NO USE-VACANT LAND,C,3,8,PROPERTY WITH NO USE,<Null>,<Null>,<Null>,1002574,210976,40.745738,-73.93387,<Null>
434,Point,967,ff9e665a333cf970cd8b52ddd98cc5fa,4,13433,29,4134330029,4134330029,413,<Null>,SPRINGFIELD BOULEVARD,SPRINGFIELD BOULEVARD,<Null>,DCAS,1520,NO USE-VACANT LAND,C,3,8,PROPERTY WITH NO USE,<Null>,<Null>,<Null>,1049903,178139,40.655384,-73.763384,<Null>
439,Point,31,0790c88abcbb66f07cc6aa2a7a3aa7f3,4,13432,23,4134320023,4134320023,413,<Null>,150 AVENUE,150 AVENUE,<Null>,DCAS,1520,NO USE-VACANT LAND,C,3,8,PROPERTY WITH NO USE,<Null>,<Null>,<Null>,1049957,178524,40.65644,-73.763185,<Null>
440,Point,36,07f380ab2b370c7d8786ccbaad0509fb,4,13433,35,4134330035,4134330035,413,<Null>,SPRINGFIELD BOULEVARD,SPRINGFIELD BOULEVARD,<Null>,DCAS,1520,NO USE-VACANT LAND,C,3,8,PROPERTY WITH NO USE,<Null>,<Null>,<Null>,1049833,177978,40.654943,-73.763638,<Null>
445,Point,113,1aa256c00d1d5f6bdd5484fc6eafad67,4,13433,5,4134330005,4134330005,413,<Null>,150 ROAD,150 ROAD,<Null>,DCAS,1520,NO USE-VACANT LAND,C,3,8,PROPERTY WITH NO USE,<Null>,<Null>,<Null>,1049767,178366,40.656008,-73.763872,<Null>
446,Point,118,1c659d9e664ee2cb667b8a962d699e0b,4,2545,54,4025450054,4025450054,402,<Null>,48 STREET,48 STREET,<Null>,DCAS,1520,NO USE-VACANT LAND,C,3,8,PROPERTY WITH NO USE,<Null>,<Null>,<Null>,1006617,205498,40.730693,-73.919297,<Null>
447,Point,121,1d073fea99d406fbe474701472278874,4,312,17,4003120017,4003120017,402,<Null>,LAUREL HILL BOULEVARD,LAUREL HILL BOULEVARD,<Null>,DCAS,1520,NO USE-VACANT LAND,C,3,8,PROPERTY WITH NO USE,<Null>,<Null>,<Null>,1001212,206622,40.73379,-73.938796,<Null>
448,Point,131,1fde83f9cdbb8a728cef5edb9930e422,4,14260,85,4142600085,4142600085,413,<Null>,<Null>,<Null>,<Null>,DSBS,1520,NO USE-VACANT LAND,C,3,8,PROPERTY WITH NO USE,<Null>,<Null>,<Null>,1045728,180682,40.662394,-73.778407,<Null>
449,Point,136,20859cdc952def322c0a3b361a8d600e,4,2602,325,4026020325,4026020325,405,<Null>,49 PLACE,49 PLACE,<Null>,DCAS,1520,NO USE-VACANT LAND,C,3,8,PROPERTY WITH NO USE,<Null>,<Null>,<Null>,1006171,201822,40.720605,-73.920919,<Null>
452,Point,160,25bf944bd80c1c1964b0e39ac7da2f1b,4,13433,23,4134330023,4134330023,413,<Null>,SPRINGFIELD BOULEVARD,SPRINGFIELD BOULEVARD,<Null>,DCAS,1520,NO USE-VACANT LAND,C,3,8,PROPERTY WITH NO USE,<Null>,<Null>,<Null>,1049943,178228,40.655628,-73.763239,<Null>
455,Point,193,2c1d5a43c4c8283ddfd88972a2449528,4,13433,15,4134330015,4134330015,413,<Null>,150 ROAD,150 ROAD,<Null>,DCAS,1520,NO USE-VACANT LAND,C,3,8,PROPERTY WITH NO USE,<Null>,<Null>,<Null>,1049885,178277,40.655763,-73.763447,<Null>
456,Point,202,3026f3316ac8f3bb3b03d2c3eb432813,4,2599,45,4025990045,4025990045,405,<Null>,RUST STREET,RUST STREET,<Null>,DCAS,1520,NO USE-VACANT LAND,C,3,8,PROPERTY WITH NO USE,<Null>,<Null>,<Null>,1008519,201869,40.720727,-73.912448,<Null>
460,Point,240,3b773cf366994226017a5671bcd504dd,4,13432,26,4134320026,4134320026,413,<Null>,150 AVENUE,150 AVENUE,<Null>,DCAS,1520,NO USE-VACANT LAND,C,3,8,PROPERTY WITH NO USE,<Null>,<Null>,<Null>,1049993,178508,40.656396,-73.763056,<Null>
461,Point,256,3e641eabe9ffa645be788e0dbdfee437,4,13432,59,4134320059,4134320059,413,<Null>,150 ROAD,150 ROAD,<Null>,DCAS,1520,NO USE-VACANT LAND,C,3,8,PROPERTY WITH NO USE,<Null>,<Null>,<Null>,1049700,178528,40.656453,-73.764112,<Null>
462,Point,259,3ee1b2e4331c6b06644be82117b15090,4,13419,1,4134190001,4134190001,413,18112,150 DRIVE,18112 150 DRIVE,<Null>,DCAS,1520,NO USE-VACANT LAND,C,3,8,PROPERTY WITH NO USE,<Null>,<Null>,<Null>,1049398,178167,40.655465,-73.765203,<Null>
463,Point,261,3f3859283b7baf5720707cb081bf6a7a,4,13432,28,4134320028,4134320028,413,<Null>,SPRINGFIELD BOULEVARD,SPRINGFIELD BOULEVARD,<Null>,DCAS,1520,NO USE-VACANT LAND,C,3,8,PROPERTY WITH NO USE,<Null>,<Null>,<Null>,1050063,178509,40.656398,-73.762803,<Null>
465,Point,266,4101e302b80b0e808c13f9eea8dedb76,4,13433,20,4134330020,4134330020,413,<Null>,150 ROAD,150 ROAD,<Null>,DCAS,1520,NO USE-VACANT LAND,C,3,8,PROPERTY WITH NO USE,<Null>,<Null>,<Null>,1049971,178289,40.655795,-73.763137,<Null>
466,Point,291,49728c2c767b45513ec3d61b01a2094f,4,13432,20,4134320020,4134320020,413,<Null>,SPRINGFIELD BOULEVARD,SPRINGFIELD BOULEVARD,<Null>,DCAS,1520,NO USE-VACANT LAND,C,3,8,PROPERTY WITH NO USE,<Null>,<Null>,<Null>,1049887,178541,40.656488,-73.763437,<Null>
470,Point,322,534de2ab82331ea2f7034400325029a9,4,2575,58,4025750058,4025750058,402,<Null>,56 ROAD,56 ROAD,<Null>,DCAS,1520,NO USE-VACANT LAND,C,3,8,PROPERTY WITH NO USE,<Null>,<Null>,<Null>,1006598,203789,40.726002,-73.919372,<Null>
472,Point,340,584d5e7f2ec60bb8473c7e34cef002e5,4,13433,10,4134330010,4134330010,413,<Null>,150 ROAD,150 ROAD,<Null>,DCAS,1520,NO USE-VACANT LAND,C,3,8,PROPERTY WITH NO USE,<Null>,<Null>,<Null>,1049827,178318,40.655876,-73.763656,<Null>
474,Point,343,58f76f538925263f360033fba8e21b85,4,2552,142,4025520142,4025520142,402,<Null>,56 ROAD,56 ROAD,<Null>,DCAS,1520,NO USE-VACANT LAND,C,3,8,PROPERTY WITH NO USE,<Null>,<Null>,<Null>,1006238,203812,40.726067,-73.92067,<Null>
475,Point,353,5b5f443b1bf306ecb9c020a5a48c8053,4,2611,80,4026110080,4026110080,405,<Null>,GRAND AVENUE,GRAND AVENUE,<Null>,DCAS,1520,NO USE-VACANT LAND,C,3,8,PROPERTY WITH NO USE,<Null>,<Null>,<Null>,1005797,200311,40.716458,-73.922273,<Null>
476,Point,355,5bedc0ceb93ebd5a2fb22c0f4d19e133,4,2575,70,4025750070,4025750070,402,3,56 ROAD,3 56 ROAD,<Null>,DCAS,1520,NO USE-VACANT LAND,C,3,8,PROPERTY WITH NO USE,<Null>,<Null>,<Null>,1006968,203697,40.725749,-73.918037,<Null>
477,Point,357,5d25437af6fa3b845f9ec2601ec1105f,4,1210,34,4012100034,4012100034,402,<Null>,38 AVENUE,38 AVENUE,<Null>,DCAS,1520,NO USE-VACANT LAND,C,3,8,PROPERTY WITH NO USE,<Null>,<Null>,<Null>,1009985,212396,40.749617,-73.907119,<Null>
479,Point,382,642349c40cea2caa8a9cb7d0ded9e537,4,13433,2,4134330002,4134330002,413,<Null>,150 ROAD,150 ROAD,<Null>,DCAS,1520,NO USE-VACANT LAND,C,3,8,PROPERTY WITH NO USE,<Null>,<Null>,<Null>,1049712,178402,40.656107,-73.764069,<Null>
480,Point,387,6534948273312d06dcb3ea34aa69dc8a,4,2552,100,4025520100,4025520100,402,<Null>,56 ROAD,56 ROAD,<Null>,DCAS,1520,NO USE-VACANT LAND,C,3,8,PROPERTY WITH NO USE,<Null>,<Null>,<Null>,1005655,203954,40.726458,-73.922773,<Null>
482,Point,402,6b98ac877eb5a03bce43236f4ef21c51,4,13432,67,4134320067,4134320067,413,<Null>,150 ROAD,150 ROAD,<Null>,DCAS,1520,NO USE-VACANT LAND,C,3,8,PROPERTY WITH NO USE,<Null>,<Null>,<Null>,1049642,178527,40.656451,-73.764321,<Null>
483,Point,434,746443541e42448265708ba7ede00768,4,2622,100,4026220100,4026220100,405,<Null>,RUST STREET,RUST STREET,<Null>,DCAS,1520,NO USE-VACANT LAND,C,3,8,PROPERTY WITH NO USE,<Null>,<Null>,<Null>,1009171,200923,40.718129,-73.910099,<Null>
484,Point,452,78b7add6d719b90b1de4b3a4a0512b8b,4,13432,65,4134320065,4134320065,413,<Null>,150 ROAD,150 ROAD,<Null>,DCAS,1520,NO USE-VACANT LAND,C,3,8,PROPERTY WITH NO USE,<Null>,<Null>,<Null>,1049666,178519,40.656429,-73.764234,<Null>
492,Point,545,8d4689ecd24c9efa620d3fac2f9a4321,4,13433,41,4134330041,4134330041,413,<Null>,SPRINGFIELD BOULEVARD,SPRINGFIELD BOULEVARD,<Null>,DCAS,1520,NO USE-VACANT LAND,C,3,8,PROPERTY WITH NO USE,<Null>,<Null>,<Null>,1049829,177943,40.654847,-73.763652,<Null>
496,Point,568,93427df100769e290d02af38657408e9,4,1210,33,4012100033,4012100033,402,<Null>,56 STREET,56 STREET,<Null>,DCAS,1520,NO USE-VACANT LAND,C,3,8,PROPERTY WITH NO USE,<Null>,<Null>,<Null>,1010069,212339,40.749461,-73.906816,<Null>
497,Point,583,9645253dcdf975b0d29858cc59be8353,4,13432,21,4134320021,4134320021,413,<Null>,SPRINGFIELD BOULEVARD,SPRINGFIELD BOULEVARD,<Null>,DCAS,1520,NO USE-VACANT LAND,C,3,8,PROPERTY WITH NO USE,<Null>,<Null>,<Null>,1049919,178536,40.656474,-73.763322,<Null>
502,Point,616,9de0dd3f7bb6cafec16ecd39673c1f11,4,2575,75,4025750075,4025750075,402,<Null>,56 ROAD,56 ROAD,<Null>,DCAS,1520,NO USE-VACANT LAND,C,3,8,PROPERTY WITH NO USE,<Null>,<Null>,<Null>,1007019,203678,40.725697,-73.917853,<Null>
504,Point,669,ad721ee75d271c239b200279430b02cd,4,13433,34,4134330034,4134330034,413,<Null>,SPRINGFIELD BOULEVARD,SPRINGFIELD BOULEVARD,<Null>,DCAS,1520,NO USE-VACANT LAND,C,3,8,PROPERTY WITH NO USE,<Null>,<Null>,<Null>,1049869,178051,40.655143,-73.763507,<Null>
511,Point,742,c068e4d248e11ce79a91553c48658a37,4,13433,57,4134330057,4134330057,413,<Null>,183 STREET,183 STREET,<Null>,DCAS,1520,NO USE-VACANT LAND,C,3,8,PROPERTY WITH NO USE,<Null>,<Null>,<Null>,1049744,178038,40.655108,-73.763958,<Null>
513,Point,749,c20b36114b315d4af3377b1b1eccf44d,4,10352,98,4103520098,4103520098,412,<Null>,JAMAICA AVENUE,JAMAICA AVENUE,<Null>,DCAS,1520,NO USE-VACANT LAND,C,3,8,PROPERTY WITH NO USE,<Null>,<Null>,<Null>,1046939,197875,40.709576,-73.773882,<Null>
514,Point,752,c2cdc7d7fc093deef02ee10bf25808b8,4,13433,59,4134330059,4134330059,413,<Null>,183 STREET,183 STREET,<Null>,DCAS,1520,NO USE-VACANT LAND,C,3,8,PROPERTY WITH NO USE,<Null>,<Null>,<Null>,1049737,178082,40.655229,-73.763982,<Null>
516,Point,766,c4dda171572cea7820e469e8c7f4fc37,4,13420,8,4134200008,4134200008,413,<Null>,ROCKAWAY BOULEV,ROCKAWAY BOULEV,<Null>,DCAS,1520,NO USE-VACANT LAND,C,3,8,PROPERTY WITH NO USE,<Null>,<Null>,<Null>,1049611,177954,40.654878,-73.764438,<Null>
518,Point,777,ca36a612d4421b99ad071f4d45f2fbf6,4,70,45,4000700045,4000700045,402,<Null>,51 AVENUE,51 AVENUE,UNDER MIDTOWN TUNNEL EXPWY,DCAS,1520,NO USE-VACANT LAND,C,3,8,PROPERTY WITH NO USE,<Null>,<Null>,<Null>,998518,209413,40.741456,-73.948511,<Null>
520,Point,785,cd1624a89262a084d4fea33a96d08d12,4,13432,30,4134320030,4134320030,413,<Null>,SPRINGFIELD BOULEVARD,SPRINGFIELD BOULEVARD,<Null>,DCAS,1520,NO USE-VACANT LAND,C,3,8,PROPERTY WITH NO USE,<Null>,<Null>,<Null>,1050048,178473,40.6563,-73.762858,<Null>
524,Point,810,d1401dc6d8b851fcfb424d9ac496e3b6,4,13433,53,4134330053,4134330053,413,<Null>,183 STREET,183 STREET,<Null>,DCAS,1520,NO USE-VACANT LAND,C,3,8,PROPERTY WITH NO USE,<Null>,<Null>,<Null>,1049755,177953,40.654875,-73.763919,<Null>
525,Point,811,d1badf0d5872e1b1c992245c5d3f1f1e,4,13432,32,4134320032,4134320032,413,<Null>,SPRINGFIELD BOULEVARD,SPRINGFIELD BOULEVARD,<Null>,DCAS,1520,NO USE-VACANT LAND,C,3,8,PROPERTY WITH NO USE,<Null>,<Null>,<Null>,1050024,178418,40.656149,-73.762945,<Null>
527,Point,821,d44db52ec7d5411aa6ab83b44f2956aa,4,2552,75,4025520075,4025520075,402,<Null>,56 ROAD,56 ROAD,<Null>,DCAS,1520,NO USE-VACANT LAND,C,3,8,PROPERTY WITH NO USE,<Null>,<Null>,<Null>,1005682,203869,40.726224,-73.922676,<Null>
529,Point,875,e9b0b7422fa3dce678e3e42925218cbe,4,13433,69,4134330069,4134330069,413,<Null>,183 STREET,183 STREET,<Null>,DCAS,1520,NO USE-VACANT LAND,C,3,8,PROPERTY WITH NO USE,<Null>,<Null>,<Null>,1049718,178285,40.655786,-73.764049,<Null>
530,Point,895,eeb348f9babda5528e911bc8b73ffe36,4,13433,45,4134330045,4134330045,413,<Null>,SPRINGFIELD BOULEVARD,SPRINGFIELD BOULEVARD,<Null>,DCAS,1520,NO USE-VACANT LAND,C,3,8,PROPERTY WITH NO USE,<Null>,<Null>,<Null>,1049814,177943,40.654847,-73.763706,<Null>
531,Point,899,efae7e9807cc89c4e9c7d87d4afbbe5d,4,13433,36,4134330036,4134330036,413,<Null>,SPRINGFIELD BOULEVARD,SPRINGFIELD BOULEVARD,<Null>,DCAS,1520,NO USE-VACANT LAND,C,3,8,PROPERTY WITH NO USE,<Null>,<Null>,<Null>,1049821,178139,40.655385,-73.763679,<Null>
532,Point,900,efc64c49b6a1293463662e32404060bf,4,2599,49,4025990049,4025990049,405,<Null>,RUST STREET,RUST STREET,<Null>,DCAS,1520,NO USE-VACANT LAND,C,3,8,PROPERTY WITH NO USE,<Null>,<Null>,<Null>,1008542,201831,40.720623,-73.912365,<Null>
533,Point,902,f011d8f16b663e57a9066c38025dd938,4,14260,144,4142600144,4142600144,483,<Null>,SOUTH CONDUIT BOULEVARD,SOUTH CONDUIT BOULEVARD,PARK,DOT,1520,NO USE-VACANT LAND,C,3,8,PROPERTY WITH NO USE,<Null>,<Null>,<Null>,1030808,181581,40.664953,-73.832179,<Null>
534,Point,915,f427339a0c23471d1718a67ffbf1d1f1,4,13433,55,4134330055,4134330055,413,<Null>,183 STREET,183 STREET,<Null>,DCAS,1520,NO USE-VACANT LAND,C,3,8,PROPERTY WITH NO USE,<Null>,<Null>,<Null>,1049746,177992,40.654982,-73.763951,<Null>
535,Point,916,f457125767444867331a72ab327df89f,4,10059,10,4100590010,4100590010,412,14726,105 AVENUE,14726 105 AVENUE,<Null>,HPD,1520,NO USE-VACANT LAND,C,3,8,PROPERTY WITH NO USE,<Null>,D,<Null>,1038919,192933,40.696065,-73.80285,<Null>
540,Point,955,fd21b0b4c2399350254bb9142e0e046c,4,2575,244,4025750244,4025750244,402,<Null>,49 LANE,49 LANE,<Null>,DCAS,1520,NO USE-VACANT LAND,C,3,8,PROPERTY WITH NO USE,<Null>,<Null>,<Null>,1006979,202899,40.723559,-73.918,<Null>
542,Point,965,ff817f6007ac697876493f7dfd95165c,4,276,46,4002760046,4002760046,402,<Null>,QUEENS BOULEVARD,QUEENS BOULEVARD,<Null>,DCAS,1520,NO USE-VACANT LAND,C,3,8,PROPERTY WITH NO USE,<Null>,<Null>,<Null>,1002574,210976,40.745738,-73.93387,<Null>
543,Point,967,ff9e665a333cf970cd8b52ddd98cc5fa,4,13433,29,4134330029,4134330029,413,<Null>,SPRINGFIELD BOULEVARD,SPRINGFIELD BOULEVARD,<Null>,DCAS,1520,NO USE-VACANT LAND,C,3,8,PROPERTY WITH NO USE,<Null>,<Null>,<Null>,1049903,178139,40.655384,-73.763384,<Null>
548,Point,31,0790c88abcbb66f07cc6aa2a7a3aa7f3,4,13432,23,4134320023,4134320023,413,<Null>,150 AVENUE,150 AVENUE,<Null>,DCAS,1520,NO USE-VACANT LAND,C,3,8,PROPERTY WITH NO USE,<Null>,<Null>,<Null>,1049957,178524,40.65644,-73.763185,<Null>
549,Point,36,07f380ab2b370c7d8786ccbaad0509fb,4,13433,35,4134330035,4134330035,413,<Null>,SPRINGFIELD BOULEVARD,SPRINGFIELD BOULEVARD,<Null>,DCAS,1520,NO USE-VACANT LAND,C,3,8,PROPERTY WITH NO USE,<Null>,<Null>,<Null>,1049833,177978,40.654943,-73.763638,<Null>
554,Point,113,1aa256c00d1d5f6bdd5484fc6eafad67,4,13433,5,4134330005,4134330005,413,<Null>,150 ROAD,150 ROAD,<Null>,DCAS,1520,NO USE-VACANT LAND,C,3,8,PROPERTY WITH NO USE,<Null>,<Null>,<Null>,1049767,178366,40.656008,-73.763872,<Null>
555,Point,118,1c659d9e664ee2cb667b8a962d699e0b,4,2545,54,4025450054,4025450054,402,<Null>,48 STREET,48 STREET,<Null>,DCAS,1520,NO USE-VACANT LAND,C,3,8,PROPERTY WITH NO USE,<Null>,<Null>,<Null>,1006617,205498,40.730693,-73.919297,<Null>
556,Point,121,1d073fea99d406fbe474701472278874,4,312,17,4003120017,4003120017,402,<Null>,LAUREL HILL BOULEVARD,LAUREL HILL BOULEVARD,<Null>,DCAS,1520,NO USE-VACANT LAND,C,3,8,PROPERTY WITH NO USE,<Null>,<Null>,<Null>,1001212,206622,40.73379,-73.938796,<Null>
557,Point,131,1fde83f9cdbb8a728cef5edb9930e422,4,14260,85,4142600085,4142600085,413,<Null>,<Null>,<Null>,<Null>,DSBS,1520,NO USE-VACANT LAND,C,3,8,PROPERTY WITH NO USE,<Null>,<Null>,<Null>,1045728,180682,40.662394,-73.778407,<Null>
558,Point,136,20859cdc952def322c0a3b361a8d600e,4,2602,325,4026020325,4026020325,405,<Null>,49 PLACE,49 PLACE,<Null>,DCAS,1520,NO USE-VACANT LAND,C,3,8,PROPERTY WITH NO USE,<Null>,<Null>,<Null>,1006171,201822,40.720605,-73.920919,<Null>
561,Point,160,25bf944bd80c1c1964b0e39ac7da2f1b,4,13433,23,4134330023,4134330023,413,<Null>,SPRINGFIELD BOULEVARD,SPRINGFIELD BOULEVARD,<Null>,DCAS,1520,NO USE-VACANT LAND,C,3,8,PROPERTY WITH NO USE,<Null>,<Null>,<Null>,1049943,178228,40.655628,-73.763239,<Null>
564,Point,193,2c1d5a43c4c8283ddfd88972a2449528,4,13433,15,4134330015,4134330015,413,<Null>,150 ROAD,150 ROAD,<Null>,DCAS,1520,NO USE-VACANT LAND,C,3,8,PROPERTY WITH NO USE,<Null>,<Null>,<Null>,1049885,178277,40.655763,-73.763447,<Null>
565,Point,202,3026f3316ac8f3bb3b03d2c3eb432813,4,2599,45,4025990045,4025990045,405,<Null>,RUST STREET,RUST STREET,<Null>,DCAS,1520,NO USE-VACANT LAND,C,3,8,PROPERTY WITH NO USE,<Null>,<Null>,<Null>,1008519,201869,40.720727,-73.912448,<Null>
569,Point,240,3b773cf366994226017a5671bcd504dd,4,13432,26,4134320026,4134320026,413,<Null>,150 AVENUE,150 AVENUE,<Null>,DCAS,1520,NO USE-VACANT LAND,C,3,8,PROPERTY WITH NO USE,<Null>,<Null>,<Null>,1049993,178508,40.656396,-73.763056,<Null>
570,Point,256,3e641eabe9ffa645be788e0dbdfee437,4,13432,59,4134320059,4134320059,413,<Null>,150 ROAD,150 ROAD,<Null>,DCAS,1520,NO USE-VACANT LAND,C,3,8,PROPERTY WITH NO USE,<Null>,<Null>,<Null>,1049700,178528,40.656453,-73.764112,<Null>
571,Point,259,3ee1b2e4331c6b06644be82117b15090,4,13419,1,4134190001,4134190001,413,18112,150 DRIVE,18112 150 DRIVE,<Null>,DCAS,1520,NO USE-VACANT LAND,C,3,8,PROPERTY WITH NO USE,<Null>,<Null>,<Null>,1049398,178167,40.655465,-73.765203,<Null>
572,Point,261,3f3859283b7baf5720707cb081bf6a7a,4,13432,28,4134320028,4134320028,413,<Null>,SPRINGFIELD BOULEVARD,SPRINGFIELD BOULEVARD,<Null>,DCAS,1520,NO USE-VACANT LAND,C,3,8,PROPERTY WITH NO USE,<Null>,<Null>,<Null>,1050063,178509,40.656398,-73.762803,<Null>
574,Point,266,4101e302b80b0e808c13f9eea8dedb76,4,13433,20,4134330020,4134330020,413,<Null>,150 ROAD,150 ROAD,<Null>,DCAS,1520,NO USE-VACANT LAND,C,3,8,PROPERTY WITH NO USE,<Null>,<Null>,<Null>,1049971,178289,40.655795,-73.763137,<Null>
575,Point,291,49728c2c767b45513ec3d61b01a2094f,4,13432,20,4134320020,4134320020,413,<Null>,SPRINGFIELD BOULEVARD,SPRINGFIELD BOULEVARD,<Null>,DCAS,1520,NO USE-VACANT LAND,C,3,8,PROPERTY WITH NO USE,<Null>,<Null>,<Null>,1049887,178541,40.656488,-73.763437,<Null>
579,Point,322,534de2ab82331ea2f7034400325029a9,4,2575,58,4025750058,4025750058,402,<Null>,56 ROAD,56 ROAD,<Null>,DCAS,1520,NO USE-VACANT LAND,C,3,8,PROPERTY WITH NO USE,<Null>,<Null>,<Null>,1006598,203789,40.726002,-73.919372,<Null>
581,Point,340,584d5e7f2ec60bb8473c7e34cef002e5,4,13433,10,4134330010,4134330010,413,<Null>,150 ROAD,150 ROAD,<Null>,DCAS,1520,NO USE-VACANT LAND,C,3,8,PROPERTY WITH NO USE,<Null>,<Null>,<Null>,1049827,178318,40.655876,-73.763656,<Null>
583,Point,343,58f76f538925263f360033fba8e21b85,4,2552,142,4025520142,4025520142,402,<Null>,56 ROAD,56 ROAD,<Null>,DCAS,1520,NO USE-VACANT LAND,C,3,8,PROPERTY WITH NO USE,<Null>,<Null>,<Null>,1006238,203812,40.726067,-73.92067,<Null>
584,Point,353,5b5f443b1bf306ecb9c020a5a48c8053,4,2611,80,4026110080,4026110080,405,<Null>,GRAND AVENUE,GRAND AVENUE,<Null>,DCAS,1520,NO USE-VACANT LAND,C,3,8,PROPERTY WITH NO USE,<Null>,<Null>,<Null>,1005797,200311,40.716458,-73.922273,<Null>
585,Point,355,5bedc0ceb93ebd5a2fb22c0f4d19e133,4,2575,70,4025750070,4025750070,402,3,56 ROAD,3 56 ROAD,<Null>,DCAS,1520,NO USE-VACANT LAND,C,3,8,PROPERTY WITH NO USE,<Null>,<Null>,<Null>,1006968,203697,40.725749,-73.918037,<Null>
586,Point,357,5d25437af6fa3b845f9ec2601ec1105f,4,1210,34,4012100034,4012100034,402,<Null>,38 AVENUE,38 AVENUE,<Null>,DCAS,1520,NO USE-VACANT LAND,C,3,8,PROPERTY WITH NO USE,<Null>,<Null>,<Null>,1009985,212396,40.749617,-73.907119,<Null>
588,Point,382,642349c40cea2caa8a9cb7d0ded9e537,4,13433,2,4134330002,4134330002,413,<Null>,150 ROAD,150 ROAD,<Null>,DCAS,1520,NO USE-VACANT LAND,C,3,8,PROPERTY WITH NO USE,<Null>,<Null>,<Null>,1049712,178402,40.656107,-73.764069,<Null>
589,Point,387,6534948273312d06dcb3ea34aa69dc8a,4,2552,100,4025520100,4025520100,402,<Null>,56 ROAD,56 ROAD,<Null>,DCAS,1520,NO USE-VACANT LAND,C,3,8,PROPERTY WITH NO USE,<Null>,<Null>,<Null>,1005655,203954,40.726458,-73.922773,<Null>
591,Point,402,6b98ac877eb5a03bce43236f4ef21c51,4,13432,67,4134320067,4134320067,413,<Null>,150 ROAD,150 ROAD,<Null>,DCAS,1520,NO USE-VACANT LAND,C,3,8,PROPERTY WITH NO USE,<Null>,<Null>,<Null>,1049642,178527,40.656451,-73.764321,<Null>
592,Point,434,746443541e42448265708ba7ede00768,4,2622,100,4026220100,4026220100,405,<Null>,RUST STREET,RUST STREET,<Null>,DCAS,1520,NO USE-VACANT LAND,C,3,8,PROPERTY WITH NO USE,<Null>,<Null>,<Null>,1009171,200923,40.718129,-73.910099,<Null>
593,Point,452,78b7add6d719b90b1de4b3a4a0512b8b,4,13432,65,4134320065,4134320065,413,<Null>,150 ROAD,150 ROAD,<Null>,DCAS,1520,NO USE-VACANT LAND,C,3,8,PROPERTY WITH NO USE,<Null>,<Null>,<Null>,1049666,178519,40.656429,-73.764234,<Null>
601,Point,545,8d4689ecd24c9efa620d3fac2f9a4321,4,13433,41,4134330041,4134330041,413,<Null>,SPRINGFIELD BOULEVARD,SPRINGFIELD BOULEVARD,<Null>,DCAS,1520,NO USE-VACANT LAND,C,3,8,PROPERTY WITH NO USE,<Null>,<Null>,<Null>,1049829,177943,40.654847,-73.763652,<Null>
605,Point,568,93427df100769e290d02af38657408e9,4,1210,33,4012100033,4012100033,402,<Null>,56 STREET,56 STREET,<Null>,DCAS,1520,NO USE-VACANT LAND,C,3,8,PROPERTY WITH NO USE,<Null>,<Null>,<Null>,1010069,212339,40.749461,-73.906816,<Null>
606,Point,583,9645253dcdf975b0d29858cc59be8353,4,13432,21,4134320021,4134320021,413,<Null>,SPRINGFIELD BOULEVARD,SPRINGFIELD BOULEVARD,<Null>,DCAS,1520,NO USE-VACANT LAND,C,3,8,PROPERTY WITH NO USE,<Null>,<Null>,<Null>,1049919,178536,40.656474,-73.763322,<Null>
611,Point,616,9de0dd3f7bb6cafec16ecd39673c1f11,4,2575,75,4025750075,4025750075,402,<Null>,56 ROAD,56 ROAD,<Null>,DCAS,1520,NO USE-VACANT LAND,C,3,8,PROPERTY WITH NO USE,<Null>,<Null>,<Null>,1007019,203678,40.725697,-73.917853,<Null>
613,Point,669,ad721ee75d271c239b200279430b02cd,4,13433,34,4134330034,4134330034,413,<Null>,SPRINGFIELD BOULEVARD,SPRINGFIELD BOULEVARD,<Null>,DCAS,1520,NO USE-VACANT LAND,C,3,8,PROPERTY WITH NO USE,<Null>,<Null>,<Null>,1049869,178051,40.655143,-73.763507,<Null>
620,Point,742,c068e4d248e11ce79a91553c48658a37,4,13433,57,4134330057,4134330057,413,<Null>,183 STREET,183 STREET,<Null>,DCAS,1520,NO USE-VACANT LAND,C,3,8,PROPERTY WITH NO USE,<Null>,<Null>,<Null>,1049744,178038,40.655108,-73.763958,<Null>
622,Point,749,c20b36114b315d4af3377b1b1eccf44d,4,10352,98,4103520098,4103520098,412,<Null>,JAMAICA AVENUE,JAMAICA AVENUE,<Null>,DCAS,1520,NO USE-VACANT LAND,C,3,8,PROPERTY WITH NO USE,<Null>,<Null>,<Null>,1046939,197875,40.709576,-73.773882,<Null>
623,Point,752,c2cdc7d7fc093deef02ee10bf25808b8,4,13433,59,4134330059,4134330059,413,<Null>,183 STREET,183 STREET,<Null>,DCAS,1520,NO USE-VACANT LAND,C,3,8,PROPERTY WITH NO USE,<Null>,<Null>,<Null>,1049737,178082,40.655229,-73.763982,<Null>
625,Point,766,c4dda171572cea7820e469e8c7f4fc37,4,13420,8,4134200008,4134200008,413,<Null>,ROCKAWAY BOULEV,ROCKAWAY BOULEV,<Null>,DCAS,1520,NO USE-VACANT LAND,C,3,8,PROPERTY WITH NO USE,<Null>,<Null>,<Null>,1049611,177954,40.654878,-73.764438,<Null>
627,Point,777,ca36a612d4421b99ad071f4d45f2fbf6,4,70,45,4000700045,4000700045,402,<Null>,51 AVENUE,51 AVENUE,UNDER MIDTOWN TUNNEL EXPWY,DCAS,1520,NO USE-VACANT LAND,C,3,8,PROPERTY WITH NO USE,<Null>,<Null>,<Null>,998518,209413,40.741456,-73.948511,<Null>
629,Point,785,cd1624a89262a084d4fea33a96d08d12,4,13432,30,4134320030,4134320030,413,<Null>,SPRINGFIELD BOULEVARD,SPRINGFIELD BOULEVARD,<Null>,DCAS,1520,NO USE-VACANT LAND,C,3,8,PROPERTY WITH NO USE,<Null>,<Null>,<Null>,1050048,178473,40.6563,-73.762858,<Null>
633,Point,810,d1401dc6d8b851fcfb424d9ac496e3b6,4,13433,53,4134330053,4134330053,413,<Null>,183 STREET,183 STREET,<Null>,DCAS,1520,NO USE-VACANT LAND,C,3,8,PROPERTY WITH NO USE,<Null>,<Null>,<Null>,1049755,177953,40.654875,-73.763919,<Null>
634,Point,811,d1badf0d5872e1b1c992245c5d3f1f1e,4,13432,32,4134320032,4134320032,413,<Null>,SPRINGFIELD BOULEVARD,SPRINGFIELD BOULEVARD,<Null>,DCAS,1520,NO USE-VACANT LAND,C,3,8,PROPERTY WITH NO USE,<Null>,<Null>,<Null>,1050024,178418,40.656149,-73.762945,<Null>
636,Point,821,d44db52ec7d5411aa6ab83b44f2956aa,4,2552,75,4025520075,4025520075,402,<Null>,56 ROAD,56 ROAD,<Null>,DCAS,1520,NO USE-VACANT LAND,C,3,8,PROPERTY WITH NO USE,<Null>,<Null>,<Null>,1005682,203869,40.726224,-73.922676,<Null>
638,Point,875,e9b0b7422fa3dce678e3e42925218cbe,4,13433,69,4134330069,4134330069,413,<Null>,183 STREET,183 STREET,<Null>,DCAS,1520,NO USE-VACANT LAND,C,3,8,PROPERTY WITH NO USE,<Null>,<Null>,<Null>,1049718,178285,40.655786,-73.764049,<Null>
639,Point,895,eeb348f9babda5528e911bc8b73ffe36,4,13433,45,4134330045,4134330045,413,<Null>,SPRINGFIELD BOULEVARD,SPRINGFIELD BOULEVARD,<Null>,DCAS,1520,NO USE-VACANT LAND,C,3,8,PROPERTY WITH NO USE,<Null>,<Null>,<Null>,1049814,177943,40.654847,-73.763706,<Null>
640,Point,899,efae7e9807cc89c4e9c7d87d4afbbe5d,4,13433,36,4134330036,4134330036,413,<Null>,SPRINGFIELD BOULEVARD,SPRINGFIELD BOULEVARD,<Null>,DCAS,1520,NO USE-VACANT LAND,C,3,8,PROPERTY WITH NO USE,<Null>,<Null>,<Null>,1049821,178139,40.655385,-73.763679,<Null>
641,Point,900,efc64c49b6a1293463662e32404060bf,4,2599,49,4025990049,4025990049,405,<Null>,RUST STREET,RUST STREET,<Null>,DCAS,1520,NO USE-VACANT LAND,C,3,8,PROPERTY WITH NO USE,<Null>,<Null>,<Null>,1008542,201831,40.720623,-73.912365,<Null>
642,Point,902,f011d8f16b663e57a9066c38025dd938,4,14260,144,4142600144,4142600144,483,<Null>,SOUTH CONDUIT BOULEVARD,SOUTH CONDUIT BOULEVARD,PARK,DOT,1520,NO USE-VACANT LAND,C,3,8,PROPERTY WITH NO USE,<Null>,<Null>,<Null>,1030808,181581,40.664953,-73.832179,<Null>
643,Point,915,f427339a0c23471d1718a67ffbf1d1f1,4,13433,55,4134330055,4134330055,413,<Null>,183 STREET,183 STREET,<Null>,DCAS,1520,NO USE-VACANT LAND,C,3,8,PROPERTY WITH NO USE,<Null>,<Null>,<Null>,1049746,177992,40.654982,-73.763951,<Null>
644,Point,916,f457125767444867331a72ab327df89f,4,10059,10,4100590010,4100590010,412,14726,105 AVENUE,14726 105 AVENUE,<Null>,HPD,1520,NO USE-VACANT LAND,C,3,8,PROPERTY WITH NO USE,<Null>,D,<Null>,1038919,192933,40.696065,-73.80285,<Null>
649,Point,955,fd21b0b4c2399350254bb9142e0e046c,4,2575,244,4025750244,4025750244,402,<Null>,49 LANE,49 LANE,<Null>,DCAS,1520,NO USE-VACANT LAND,C,3,8,PROPERTY WITH NO USE,<Null>,<Null>,<Null>,1006979,202899,40.723559,-73.918,<Null>
651,Point,965,ff817f6007ac697876493f7dfd95165c,4,276,46,4002760046,4002760046,402,<Null>,QUEENS BOULEVARD,QUEENS BOULEVARD,<Null>,DCAS,1520,NO USE-VACANT LAND,C,3,8,PROPERTY WITH NO USE,<Null>,<Null>,<Null>,1002574,210976,40.745738,-73.93387,<Null>
652,Point,967,ff9e665a333cf970cd8b52ddd98cc5fa,4,13433,29,4134330029,4134330029,413,<Null>,SPRINGFIELD BOULEVARD,SPRINGFIELD BOULEVARD,<Null>,DCAS,1520,NO USE-VACANT LAND,C,3,8,PROPERTY WITH NO USE,<Null>,<Null>,<Null>,1049903,178139,40.655384,-73.763384,<Null>
657,Point,31,0790c88abcbb66f07cc6aa2a7a3aa7f3,4,13432,23,4134320023,4134320023,413,<Null>,150 AVENUE,150 AVENUE,<Null>,DCAS,1520,NO USE-VACANT LAND,C,3,8,PROPERTY WITH NO USE,<Null>,<Null>,<Null>,1049957,178524,40.65644,-73.763185,<Null>
658,Point,36,07f380ab2b370c7d8786ccbaad0509fb,4,13433,35,4134330035,4134330035,413,<Null>,SPRINGFIELD BOULEVARD,SPRINGFIELD BOULEVARD,<Null>,DCAS,1520,NO USE-VACANT LAND,C,3,8,PROPERTY WITH NO USE,<Null>,<Null>,<Null>,1049833,177978,40.654943,-73.763638,<Null>
663,Point,113,1aa256c00d1d5f6bdd5484fc6eafad67,4,13433,5,4134330005,4134330005,413,<Null>,150 ROAD,150 ROAD,<Null>,DCAS,1520,NO USE-VACANT LAND,C,3,8,PROPERTY WITH NO USE,<Null>,<Null>,<Null>,1049767,178366,40.656008,-73.763872,<Null>
664,Point,118,1c659d9e664ee2cb667b8a962d699e0b,4,2545,54,4025450054,4025450054,402,<Null>,48 STREET,48 STREET,<Null>,DCAS,1520,NO USE-VACANT LAND,C,3,8,PROPERTY WITH NO USE,<Null>,<Null>,<Null>,1006617,205498,40.730693,-73.919297,<Null>
665,Point,121,1d073fea99d406fbe474701472278874,4,312,17,4003120017,4003120017,402,<Null>,LAUREL HILL BOULEVARD,LAUREL HILL BOULEVARD,<Null>,DCAS,1520,NO USE-VACANT LAND,C,3,8,PROPERTY WITH NO USE,<Null>,<Null>,<Null>,1001212,206622,40.73379,-73.938796,<Null>
666,Point,131,1fde83f9cdbb8a728cef5edb9930e422,4,14260,85,4142600085,4142600085,413,<Null>,<Null>,<Null>,<Null>,DSBS,1520,NO USE-VACANT LAND,C,3,8,PROPERTY WITH NO USE,<Null>,<Null>,<Null>,1045728,180682,40.662394,-73.778407,<Null>
667,Point,136,20859cdc952def322c0a3b361a8d600e,4,2602,325,4026020325,4026020325,405,<Null>,49 PLACE,49 PLACE,<Null>,DCAS,1520,NO USE-VACANT LAND,C,3,8,PROPERTY WITH NO USE,<Null>,<Null>,<Null>,1006171,201822,40.720605,-73.920919,<Null>
670,Point,160,25bf944bd80c1c1964b0e39ac7da2f1b,4,13433,23,4134330023,4134330023,413,<Null>,SPRINGFIELD BOULEVARD,SPRINGFIELD BOULEVARD,<Null>,DCAS,1520,NO USE-VACANT LAND,C,3,8,PROPERTY WITH NO USE,<Null>,<Null>,<Null>,1049943,178228,40.655628,-73.763239,<Null>
673,Point,193,2c1d5a43c4c8283ddfd88972a2449528,4,13433,15,4134330015,4134330015,413,<Null>,150 ROAD,150 ROAD,<Null>,DCAS,1520,NO USE-VACANT LAND,C,3,8,PROPERTY WITH NO USE,<Null>,<Null>,<Null>,1049885,178277,40.655763,-73.763447,<Null>
674,Point,202,3026f3316ac8f3bb3b03d2c3eb432813,4,2599,45,4025990045,4025990045,405,<Null>,RUST STREET,RUST STREET,<Null>,DCAS,1520,NO USE-VACANT LAND,C,3,8,PROPERTY WITH NO USE,<Null>,<Null>,<Null>,1008519,201869,40.720727,-73.912448,<Null>
678,Point,240,3b773cf366994226017a5671bcd504dd,4,13432,26,4134320026,4134320026,413,<Null>,150 AVENUE,150 AVENUE,<Null>,DCAS,1520,NO USE-VACANT LAND,C,3,8,PROPERTY WITH NO USE,<Null>,<Null>,<Null>,1049993,178508,40.656396,-73.763056,<Null>
679,Point,256,3e641eabe9ffa645be788e0dbdfee437,4,13432,59,4134320059,4134320059,413,<Null>,150 ROAD,150 ROAD,<Null>,DCAS,1520,NO USE-VACANT LAND,C,3,8,PROPERTY WITH NO USE,<Null>,<Null>,<Null>,1049700,178528,40.656453,-73.764112,<Null>
680,Point,259,3ee1b2e4331c6b06644be82117b15090,4,13419,1,4134190001,4134190001,413,18112,150 DRIVE,18112 150 DRIVE,<Null>,DCAS,1520,NO USE-VACANT LAND,C,3,8,PROPERTY WITH NO USE,<Null>,<Null>,<Null>,1049398,178167,40.655465,-73.765203,<Null>
681,Point,261,3f3859283b7baf5720707cb081bf6a7a,4,13432,28,4134320028,4134320028,413,<Null>,SPRINGFIELD BOULEVARD,SPRINGFIELD BOULEVARD,<Null>,DCAS,1520,NO USE-VACANT LAND,C,3,8,PROPERTY WITH NO USE,<Null>,<Null>,<Null>,1050063,178509,40.656398,-73.762803,<Null>
683,Point,266,4101e302b80b0e808c13f9eea8dedb76,4,13433,20,4134330020,4134330020,413,<Null>,150 ROAD,150 ROAD,<Null>,DCAS,1520,NO USE-VACANT LAND,C,3,8,PROPERTY WITH NO USE,<Null>,<Null>,<Null>,1049971,178289,40.655795,-73.763137,<Null>
684,Point,291,49728c2c767b45513ec3d61b01a2094f,4,13432,20,4134320020,4134320020,413,<Null>,SPRINGFIELD BOULEVARD,SPRINGFIELD BOULEVARD,<Null>,DCAS,1520,NO USE-VACANT LAND,C,3,8,PROPERTY WITH NO USE,<Null>,<Null>,<Null>,1049887,178541,40.656488,-73.763437,<Null>
688,Point,322,534de2ab82331ea2f7034400325029a9,4,2575,58,4025750058,4025750058,402,<Null>,56 ROAD,56 ROAD,<Null>,DCAS,1520,NO USE-VACANT LAND,C,3,8,PROPERTY WITH NO USE,<Null>,<Null>,<Null>,1006598,203789,40.726002,-73.919372,<Null>
690,Point,340,584d5e7f2ec60bb8473c7e34cef002e5,4,13433,10,4134330010,4134330010,413,<Null>,150 ROAD,150 ROAD,<Null>,DCAS,1520,NO USE-VACANT LAND,C,3,8,PROPERTY WITH NO USE,<Null>,<Null>,<Null>,1049827,178318,40.655876,-73.763656,<Null>
692,Point,343,58f76f538925263f360033fba8e21b85,4,2552,142,4025520142,4025520142,402,<Null>,56 ROAD,56 ROAD,<Null>,DCAS,1520,NO USE-VACANT LAND,C,3,8,PROPERTY WITH NO USE,<Null>,<Null>,<Null>,1006238,203812,40.726067,-73.92067,<Null>
693,Point,353,5b5f443b1bf306ecb9c020a5a48c8053,4,2611,80,4026110080,4026110080,405,<Null>,GRAND AVENUE,GRAND AVENUE,<Null>,DCAS,1520,NO USE-VACANT LAND,C,3,8,PROPERTY WITH NO USE,<Null>,<Null>,<Null>,1005797,200311,40.716458,-73.922273,<Null>
694,Point,355,5bedc0ceb93ebd5a2fb22c0f4d19e133,4,2575,70,4025750070,4025750070,402,3,56 ROAD,3 56 ROAD,<Null>,DCAS,1520,NO USE-VACANT LAND,C,3,8,PROPERTY WITH NO USE,<Null>,<Null>,<Null>,1006968,203697,40.725749,-73.918037,<Null>
695,Point,357,5d25437af6fa3b845f9ec2601ec1105f,4,1210,34,4012100034,4012100034,402,<Null>,38 AVENUE,38 AVENUE,<Null>,DCAS,1520,NO USE-VACANT LAND,C,3,8,PROPERTY WITH NO USE,<Null>,<Null>,<Null>,1009985,212396,40.749617,-73.907119,<Null>
697,Point,382,642349c40cea2caa8a9cb7d0ded9e537,4,13433,2,4134330002,4134330002,413,<Null>,150 ROAD,150 ROAD,<Null>,DCAS,1520,NO USE-VACANT LAND,C,3,8,PROPERTY WITH NO USE,<Null>,<Null>,<Null>,1049712,178402,40.656107,-73.764069,<Null>
698,Point,387,6534948273312d06dcb3ea34aa69dc8a,4,2552,100,4025520100,4025520100,402,<Null>,56 ROAD,56 ROAD,<Null>,DCAS,1520,NO USE-VACANT LAND,C,3,8,PROPERTY WITH NO USE,<Null>,<Null>,<Null>,1005655,203954,40.726458,-73.922773,<Null>
700,Point,402,6b98ac877eb5a03bce43236f4ef21c51,4,13432,67,4134320067,4134320067,413,<Null>,150 ROAD,150 ROAD,<Null>,DCAS,1520,NO USE-VACANT LAND,C,3,8,PROPERTY WITH NO USE,<Null>,<Null>,<Null>,1049642,178527,40.656451,-73.764321,<Null>
701,Point,434,746443541e42448265708ba7ede00768,4,2622,100,4026220100,4026220100,405,<Null>,RUST STREET,RUST STREET,<Null>,DCAS,1520,NO USE-VACANT LAND,C,3,8,PROPERTY WITH NO USE,<Null>,<Null>,<Null>,1009171,200923,40.718129,-73.910099,<Null>
702,Point,452,78b7add6d719b90b1de4b3a4a0512b8b,4,13432,65,4134320065,4134320065,413,<Null>,150 ROAD,150 ROAD,<Null>,DCAS,1520,NO USE-VACANT LAND,C,3,8,PROPERTY WITH NO USE,<Null>,<Null>,<Null>,1049666,178519,40.656429,-73.764234,<Null>
710,Point,545,8d4689ecd24c9efa620d3fac2f9a4321,4,13433,41,4134330041,4134330041,413,<Null>,SPRINGFIELD BOULEVARD,SPRINGFIELD BOULEVARD,<Null>,DCAS,1520,NO USE-VACANT LAND,C,3,8,PROPERTY WITH NO USE,<Null>,<Null>,<Null>,1049829,177943,40.654847,-73.763652,<Null>
714,Point,568,93427df100769e290d02af38657408e9,4,1210,33,4012100033,4012100033,402,<Null>,56 STREET,56 STREET,<Null>,DCAS,1520,NO USE-VACANT LAND,C,3,8,PROPERTY WITH NO USE,<Null>,<Null>,<Null>,1010069,212339,40.749461,-73.906816,<Null>
715,Point,583,9645253dcdf975b0d29858cc59be8353,4,13432,21,4134320021,4134320021,413,<Null>,SPRINGFIELD BOULEVARD,SPRINGFIELD BOULEVARD,<Null>,DCAS,1520,NO USE-VACANT LAND,C,3,8,PROPERTY WITH NO USE,<Null>,<Null>,<Null>,1049919,178536,40.656474,-73.763322,<Null>
720,Point,616,9de0dd3f7bb6cafec16ecd39673c1f11,4,2575,75,4025750075,4025750075,402,<Null>,56 ROAD,56 ROAD,<Null>,DCAS,1520,NO USE-VACANT LAND,C,3,8,PROPERTY WITH NO USE,<Null>,<Null>,<Null>,1007019,203678,40.725697,-73.917853,<Null>
722,Point,669,ad721ee75d271c239b200279430b02cd,4,13433,34,4134330034,4134330034,413,<Null>,SPRINGFIELD BOULEVARD,SPRINGFIELD BOULEVARD,<Null>,DCAS,1520,NO USE-VACANT LAND,C,3,8,PROPERTY WITH NO USE,<Null>,<Null>,<Null>,1049869,178051,40.655143,-73.763507,<Null>
729,Point,742,c068e4d248e11ce79a91553c48658a37,4,13433,57,4134330057,4134330057,413,<Null>,183 STREET,183 STREET,<Null>,DCAS,1520,NO USE-VACANT LAND,C,3,8,PROPERTY WITH NO USE,<Null>,<Null>,<Null>,1049744,178038,40.655108,-73.763958,<Null>
731,Point,749,c20b36114b315d4af3377b1b1eccf44d,4,10352,98,4103520098,4103520098,412,<Null>,JAMAICA AVENUE,JAMAICA AVENUE,<Null>,DCAS,1520,NO USE-VACANT LAND,C,3,8,PROPERTY WITH NO USE,<Null>,<Null>,<Null>,1046939,197875,40.709576,-73.773882,<Null>
732,Point,752,c2cdc7d7fc093deef02ee10bf25808b8,4,13433,59,4134330059,4134330059,413,<Null>,183 STREET,183 STREET,<Null>,DCAS,1520,NO USE-VACANT LAND,C,3,8,PROPERTY WITH NO USE,<Null>,<Null>,<Null>,1049737,178082,40.655229,-73.763982,<Null>
734,Point,766,c4dda171572cea7820e469e8c7f4fc37,4,13420,8,4134200008,4134200008,413,<Null>,ROCKAWAY BOULEV,ROCKAWAY BOULEV,<Null>,DCAS,1520,NO USE-VACANT LAND,C,3,8,PROPERTY WITH NO USE,<Null>,<Null>,<Null>,1049611,177954,40.654878,-73.764438,<Null>
736,Point,777,ca36a612d4421b99ad071f4d45f2fbf6,4,70,45,4000700045,4000700045,402,<Null>,51 AVENUE,51 AVENUE,UNDER MIDTOWN TUNNEL EXPWY,DCAS,1520,NO USE-VACANT LAND,C,3,8,PROPERTY WITH NO USE,<Null>,<Null>,<Null>,998518,209413,40.741456,-73.948511,<Null>
738,Point,785,cd1624a89262a084d4fea33a96d08d12,4,13432,30,4134320030,4134320030,413,<Null>,SPRINGFIELD BOULEVARD,SPRINGFIELD BOULEVARD,<Null>,DCAS,1520,NO USE-VACANT LAND,C,3,8,PROPERTY WITH NO USE,<Null>,<Null>,<Null>,1050048,178473,40.6563,-73.762858,<Null>
742,Point,810,d1401dc6d8b851fcfb424d9ac496e3b6,4,13433,53,4134330053,4134330053,413,<Null>,183 STREET,183 STREET,<Null>,DCAS,1520,NO USE-VACANT LAND,C,3,8,PROPERTY WITH NO USE,<Null>,<Null>,<Null>,1049755,177953,40.654875,-73.763919,<Null>
743,Point,811,d1badf0d5872e1b1c992245c5d3f1f1e,4,13432,32,4134320032,4134320032,413,<Null>,SPRINGFIELD BOULEVARD,SPRINGFIELD BOULEVARD,<Null>,DCAS,1520,NO USE-VACANT LAND,C,3,8,PROPERTY WITH NO USE,<Null>,<Null>,<Null>,1050024,178418,40.656149,-73.762945,<Null>
745,Point,821,d44db52ec7d5411aa6ab83b44f2956aa,4,2552,75,4025520075,4025520075,402,<Null>,56 ROAD,56 ROAD,<Null>,DCAS,1520,NO USE-VACANT LAND,C,3,8,PROPERTY WITH NO USE,<Null>,<Null>,<Null>,1005682,203869,40.726224,-73.922676,<Null>
747,Point,875,e9b0b7422fa3dce678e3e42925218cbe,4,13433,69,4134330069,4134330069,413,<Null>,183 STREET,183 STREET,<Null>,DCAS,1520,NO USE-VACANT LAND,C,3,8,PROPERTY WITH NO USE,<Null>,<Null>,<Null>,1049718,178285,40.655786,-73.764049,<Null>
748,Point,895,eeb348f9babda5528e911bc8b73ffe36,4,13433,45,4134330045,4134330045,413,<Null>,SPRINGFIELD BOULEVARD,SPRINGFIELD BOULEVARD,<Null>,DCAS,1520,NO USE-VACANT LAND,C,3,8,PROPERTY WITH NO USE,<Null>,<Null>,<Null>,1049814,177943,40.654847,-73.763706,<Null>
749,Point,899,efae7e9807cc89c4e9c7d87d4afbbe5d,4,13433,36,4134330036,4134330036,413,<Null>,SPRINGFIELD BOULEVARD,SPRINGFIELD BOULEVARD,<Null>,DCAS,1520,NO USE-VACANT LAND,C,3,8,PROPERTY WITH NO USE,<Null>,<Null>,<Null>,1049821,178139,40.655385,-73.763679,<Null>
750,Point,900,efc64c49b6a1293463662e32404060bf,4,2599,49,4025990049,4025990049,405,<Null>,RUST STREET,RUST STREET,<Null>,DCAS,1520,NO USE-VACANT LAND,C,3,8,PROPERTY WITH NO USE,<Null>,<Null>,<Null>,1008542,201831,40.720623,-73.912365,<Null>
751,Point,902,f011d8f16b663e57a9066c38025dd938,4,14260,144,4142600144,4142600144,483,<Null>,SOUTH CONDUIT BOULEVARD,SOUTH CONDUIT BOULEVARD,PARK,DOT,1520,NO USE-VACANT LAND,C,3,8,PROPERTY WITH NO USE,<Null>,<Null>,<Null>,1030808,181581,40.664953,-73.832179,<Null>
752,Point,915,f427339a0c23471d1718a67ffbf1d1f1,4,13433,55,4134330055,4134330055,413,<Null>,183 STREET,183 STREET,<Null>,DCAS,1520,NO USE-VACANT LAND,C,3,8,PROPERTY WITH NO USE,<Null>,<Null>,<Null>,1049746,177992,40.654982,-73.763951,<Null>
753,Point,916,f457125767444867331a72ab327df89f,4,10059,10,4100590010,4100590010,412,14726,105 AVENUE,14726 105 AVENUE,<Null>,HPD,1520,NO USE-VACANT LAND,C,3,8,PROPERTY WITH NO USE,<Null>,D,<Null>,1038919,192933,40.696065,-73.80285,<Null>
758,Point,955,fd21b0b4c2399350254bb9142e0e046c,4,2575,244,4025750244,4025750244,402,<Null>,49 LANE,49 LANE,<Null>,DCAS,1520,NO USE-VACANT LAND,C,3,8,PROPERTY WITH NO USE,<Null>,<Null>,<Null>,1006979,202899,40.723559,-73.918,<Null>
760,Point,965,ff817f6007ac697876493f7dfd95165c,4,276,46,4002760046,4002760046,402,<Null>,QUEENS BOULEVARD,QUEENS BOULEVARD,<Null>,DCAS,1520,NO USE-VACANT LAND,C,3,8,PROPERTY WITH NO USE,<Null>,<Null>,<Null>,1002574,210976,40.745738,-73.93387,<Null>
761,Point,967,ff9e665a333cf970cd8b52ddd98cc5fa,4,13433,29,4134330029,4134330029,413,<Null>,SPRINGFIELD BOULEVARD,SPRINGFIELD BOULEVARD,<Null>,DCAS,1520,NO USE-VACANT LAND,C,3,8,PROPERTY WITH NO USE,<Null>,<Null>,<Null>,1049903,178139,40.655384,-73.763384,<Null>
766,Point,31,0790c88abcbb66f07cc6aa2a7a3aa7f3,4,13432,23,4134320023,4134320023,413,<Null>,150 AVENUE,150 AVENUE,<Null>,DCAS,1520,NO USE-VACANT LAND,C,3,8,PROPERTY WITH NO USE,<Null>,<Null>,<Null>,1049957,178524,40.65644,-73.763185,<Null>
767,Point,36,07f380ab2b370c7d8786ccbaad0509fb,4,13433,35,4134330035,4134330035,413,<Null>,SPRINGFIELD BOULEVARD,SPRINGFIELD BOULEVARD,<Null>,DCAS,1520,NO USE-VACANT LAND,C,3,8,PROPERTY WITH NO USE,<Null>,<Null>,<Null>,1049833,177978,40.654943,-73.763638,<Null>
772,Point,113,1aa256c00d1d5f6bdd5484fc6eafad67,4,13433,5,4134330005,4134330005,413,<Null>,150 ROAD,150 ROAD,<Null>,DCAS,1520,NO USE-VACANT LAND,C,3,8,PROPERTY WITH NO USE,<Null>,<Null>,<Null>,1049767,178366,40.656008,-73.763872,<Null>
773,Point,118,1c659d9e664ee2cb667b8a962d699e0b,4,2545,54,4025450054,4025450054,402,<Null>,48 STREET,48 STREET,<Null>,DCAS,1520,NO USE-VACANT LAND,C,3,8,PROPERTY WITH NO USE,<Null>,<Null>,<Null>,1006617,205498,40.730693,-73.919297,<Null>
774,Point,121,1d073fea99d406fbe474701472278874,4,312,17,4003120017,4003120017,402,<Null>,LAUREL HILL BOULEVARD,LAUREL HILL BOULEVARD,<Null>,DCAS,1520,NO USE-VACANT LAND,C,3,8,PROPERTY WITH NO USE,<Null>,<Null>,<Null>,1001212,206622,40.73379,-73.938796,<Null>
775,Point,131,1fde83f9cdbb8a728cef5edb9930e422,4,14260,85,4142600085,4142600085,413,<Null>,<Null>,<Null>,<Null>,DSBS,1520,NO USE-VACANT LAND,C,3,8,PROPERTY WITH NO USE,<Null>,<Null>,<Null>,1045728,180682,40.662394,-73.778407,<Null>
776,Point,136,20859cdc952def322c0a3b361a8d600e,4,2602,325,4026020325,4026020325,405,<Null>,49 PLACE,49 PLACE,<Null>,DCAS,1520,NO USE-VACANT LAND,C,3,8,PROPERTY WITH NO USE,<Null>,<Null>,<Null>,1006171,201822,40.720605,-73.920919,<Null>
779,Point,160,25bf944bd80c1c1964b0e39ac7da2f1b,4,13433,23,4134330023,4134330023,413,<Null>,SPRINGFIELD BOULEVARD,SPRINGFIELD BOULEVARD,<Null>,DCAS,1520,NO USE-VACANT LAND,C,3,8,PROPERTY WITH NO USE,<Null>,<Null>,<Null>,1049943,178228,40.655628,-73.763239,<Null>
782,Point,193,2c1d5a43c4c8283ddfd88972a2449528,4,13433,15,4134330015,4134330015,413,<Null>,150 ROAD,150 ROAD,<Null>,DCAS,1520,NO USE-VACANT LAND,C,3,8,PROPERTY WITH NO USE,<Null>,<Null>,<Null>,1049885,178277,40.655763,-73.763447,<Null>
783,Point,202,3026f3316ac8f3bb3b03d2c3eb432813,4,2599,45,4025990045,4025990045,405,<Null>,RUST STREET,RUST STREET,<Null>,DCAS,1520,NO USE-VACANT LAND,C,3,8,PROPERTY WITH NO USE,<Null>,<Null>,<Null>,1008519,201869,40.720727,-73.912448,<Null>
787,Point,240,3b773cf366994226017a5671bcd504dd,4,13432,26,4134320026,4134320026,413,<Null>,150 AVENUE,150 AVENUE,<Null>,DCAS,1520,NO USE-VACANT LAND,C,3,8,PROPERTY WITH NO USE,<Null>,<Null>,<Null>,1049993,178508,40.656396,-73.763056,<Null>
788,Point,256,3e641eabe9ffa645be788e0dbdfee437,4,13432,59,4134320059,4134320059,413,<Null>,150 ROAD,150 ROAD,<Null>,DCAS,1520,NO USE-VACANT LAND,C,3,8,PROPERTY WITH NO USE,<Null>,<Null>,<Null>,1049700,178528,40.656453,-73.764112,<Null>
789,Point,259,3ee1b2e4331c6b06644be82117b15090,4,13419,1,4134190001,4134190001,413,18112,150 DRIVE,18112 150 DRIVE,<Null>,DCAS,1520,NO USE-VACANT LAND,C,3,8,PROPERTY WITH NO USE,<Null>,<Null>,<Null>,1049398,178167,40.655465,-73.765203,<Null>
790,Point,261,3f3859283b7baf5720707cb081bf6a7a,4,13432,28,4134320028,4134320028,413,<Null>,SPRINGFIELD BOULEVARD,SPRINGFIELD BOULEVARD,<Null>,DCAS,1520,NO USE-VACANT LAND,C,3,8,PROPERTY WITH NO USE,<Null>,<Null>,<Null>,1050063,178509,40.656398,-73.762803,<Null>
792,Point,266,4101e302b80b0e808c13f9eea8dedb76,4,13433,20,4134330020,4134330020,413,<Null>,150 ROAD,150 ROAD,<Null>,DCAS,1520,NO USE-VACANT LAND,C,3,8,PROPERTY WITH NO USE,<Null>,<Null>,<Null>,1049971,178289,40.655795,-73.763137,<Null>
793,Point,291,49728c2c767b45513ec3d61b01a2094f,4,13432,20,4134320020,4134320020,413,<Null>,SPRINGFIELD BOULEVARD,SPRINGFIELD BOULEVARD,<Null>,DCAS,1520,NO USE-VACANT LAND,C,3,8,PROPERTY WITH NO USE,<Null>,<Null>,<Null>,1049887,178541,40.656488,-73.763437,<Null>
797,Point,322,534de2ab82331ea2f7034400325029a9,4,2575,58,4025750058,4025750058,402,<Null>,56 ROAD,56 ROAD,<Null>,DCAS,1520,NO USE-VACANT LAND,C,3,8,PROPERTY WITH NO USE,<Null>,<Null>,<Null>,1006598,203789,40.726002,-73.919372,<Null>
799,Point,340,584d5e7f2ec60bb8473c7e34cef002e5,4,13433,10,4134330010,4134330010,413,<Null>,150 ROAD,150 ROAD,<Null>,DCAS,1520,NO USE-VACANT LAND,C,3,8,PROPERTY WITH NO USE,<Null>,<Null>,<Null>,1049827,178318,40.655876,-73.763656,<Null>
801,Point,343,58f76f538925263f360033fba8e21b85,4,2552,142,4025520142,4025520142,402,<Null>,56 ROAD,56 ROAD,<Null>,DCAS,1520,NO USE-VACANT LAND,C,3,8,PROPERTY WITH NO USE,<Null>,<Null>,<Null>,1006238,203812,40.726067,-73.92067,<Null>
802,Point,353,5b5f443b1bf306ecb9c020a5a48c8053,4,2611,80,4026110080,4026110080,405,<Null>,GRAND AVENUE,GRAND AVENUE,<Null>,DCAS,1520,NO USE-VACANT LAND,C,3,8,PROPERTY WITH NO USE,<Null>,<Null>,<Null>,1005797,200311,40.716458,-73.922273,<Null>
803,Point,355,5bedc0ceb93ebd5a2fb22c0f4d19e133,4,2575,70,4025750070,4025750070,402,3,56 ROAD,3 56 ROAD,<Null>,DCAS,1520,NO USE-VACANT LAND,C,3,8,PROPERTY WITH NO USE,<Null>,<Null>,<Null>,1006968,203697,40.725749,-73.918037,<Null>
804,Point,357,5d25437af6fa3b845f9ec2601ec1105f,4,1210,34,4012100034,4012100034,402,<Null>,38 AVENUE,38 AVENUE,<Null>,DCAS,1520,NO USE-VACANT LAND,C,3,8,PROPERTY WITH NO USE,<Null>,<Null>,<Null>,1009985,212396,40.749617,-73.907119,<Null>
806,Point,382,642349c40cea2caa8a9cb7d0ded9e537,4,13433,2,4134330002,4134330002,413,<Null>,150 ROAD,150 ROAD,<Null>,DCAS,1520,NO USE-VACANT LAND,C,3,8,PROPERTY WITH NO USE,<Null>,<Null>,<Null>,1049712,178402,40.656107,-73.764069,<Null>
807,Point,387,6534948273312d06dcb3ea34aa69dc8a,4,2552,100,4025520100,4025520100,402,<Null>,56 ROAD,56 ROAD,<Null>,DCAS,1520,NO USE-VACANT LAND,C,3,8,PROPERTY WITH NO USE,<Null>,<Null>,<Null>,1005655,203954,40.726458,-73.922773,<Null>
809,Point,402,6b98ac877eb5a03bce43236f4ef21c51,4,13432,67,4134320067,4134320067,413,<Null>,150 ROAD,150 ROAD,<Null>,DCAS,1520,NO USE-VACANT LAND,C,3,8,PROPERTY WITH NO USE,<Null>,<Null>,<Null>,1049642,178527,40.656451,-73.764321,<Null>
810,Point,434,746443541e42448265708ba7ede00768,4,2622,100,4026220100,4026220100,405,<Null>,RUST STREET,RUST STREET,<Null>,DCAS,1520,NO USE-VACANT LAND,C,3,8,PROPERTY WITH NO USE,<Null>,<Null>,<Null>,1009171,200923,40.718129,-73.910099,<Null>
811,Point,452,78b7add6d719b90b1de4b3a4a0512b8b,4,13432,65,4134320065,4134320065,413,<Null>,150 ROAD,150 ROAD,<Null>,DCAS,1520,NO USE-VACANT LAND,C,3,8,PROPERTY WITH NO USE,<Null>,<Null>,<Null>,1049666,178519,40.656429,-73.764234,<Null>
819,Point,545,8d4689ecd24c9efa620d3fac2f9a4321,4,13433,41,4134330041,4134330041,413,<Null>,SPRINGFIELD BOULEVARD,SPRINGFIELD BOULEVARD,<Null>,DCAS,1520,NO USE-VACANT LAND,C,3,8,PROPERTY WITH NO USE,<Null>,<Null>,<Null>,1049829,177943,40.654847,-73.763652,<Null>
823,Point,568,93427df100769e290d02af38657408e9,4,1210,33,4012100033,4012100033,402,<Null>,56 STREET,56 STREET,<Null>,DCAS,1520,NO USE-VACANT LAND,C,3,8,PROPERTY WITH NO USE,<Null>,<Null>,<Null>,1010069,212339,40.749461,-73.906816,<Null>
824,Point,583,9645253dcdf975b0d29858cc59be8353,4,13432,21,4134320021,4134320021,413,<Null>,SPRINGFIELD BOULEVARD,SPRINGFIELD BOULEVARD,<Null>,DCAS,1520,NO USE-VACANT LAND,C,3,8,PROPERTY WITH NO USE,<Null>,<Null>,<Null>,1049919,178536,40.656474,-73.763322,<Null>
829,Point,616,9de0dd3f7bb6cafec16ecd39673c1f11,4,2575,75,4025750075,4025750075,402,<Null>,56 ROAD,56 ROAD,<Null>,DCAS,1520,NO USE-VACANT LAND,C,3,8,PROPERTY WITH NO USE,<Null>,<Null>,<Null>,1007019,203678,40.725697,-73.917853,<Null>
831,Point,669,ad721ee75d271c239b200279430b02cd,4,13433,34,4134330034,4134330034,413,<Null>,SPRINGFIELD BOULEVARD,SPRINGFIELD BOULEVARD,<Null>,DCAS,1520,NO USE-VACANT LAND,C,3,8,PROPERTY WITH NO USE,<Null>,<Null>,<Null>,1049869,178051,40.655143,-73.763507,<Null>
838,Point,742,c068e4d248e11ce79a91553c48658a37,4,13433,57,4134330057,4134330057,413,<Null>,183 STREET,183 STREET,<Null>,DCAS,1520,NO USE-VACANT LAND,C,3,8,PROPERTY WITH NO USE,<Null>,<Null>,<Null>,1049744,178038,40.655108,-73.763958,<Null>
840,Point,749,c20b36114b315d4af3377b1b1eccf44d,4,10352,98,4103520098,4103520098,412,<Null>,JAMAICA AVENUE,JAMAICA AVENUE,<Null>,DCAS,1520,NO USE-VACANT LAND,C,3,8,PROPERTY WITH NO USE,<Null>,<Null>,<Null>,1046939,197875,40.709576,-73.773882,<Null>
841,Point,752,c2cdc7d7fc093deef02ee10bf25808b8,4,13433,59,4134330059,4134330059,413,<Null>,183 STREET,183 STREET,<Null>,DCAS,1520,NO USE-VACANT LAND,C,3,8,PROPERTY WITH NO USE,<Null>,<Null>,<Null>,1049737,178082,40.655229,-73.763982,<Null>
843,Point,766,c4dda171572cea7820e469e8c7f4fc37,4,13420,8,4134200008,4134200008,413,<Null>,ROCKAWAY BOULEV,ROCKAWAY BOULEV,<Null>,DCAS,1520,NO USE-VACANT LAND,C,3,8,PROPERTY WITH NO USE,<Null>,<Null>,<Null>,1049611,177954,40.654878,-73.764438,<Null>
845,Point,777,ca36a612d4421b99ad071f4d45f2fbf6,4,70,45,4000700045,4000700045,402,<Null>,51 AVENUE,51 AVENUE,UNDER MIDTOWN TUNNEL EXPWY,DCAS,1520,NO USE-VACANT LAND,C,3,8,PROPERTY WITH NO USE,<Null>,<Null>,<Null>,998518,209413,40.741456,-73.948511,<Null>
847,Point,785,cd1624a89262a084d4fea33a96d08d12,4,13432,30,4134320030,4134320030,413,<Null>,SPRINGFIELD BOULEVARD,SPRINGFIELD BOULEVARD,<Null>,DCAS,1520,NO USE-VACANT LAND,C,3,8,PROPERTY WITH NO USE,<Null>,<Null>,<Null>,1050048,178473,40.6563,-73.762858,<Null>
851,Point,810,d1401dc6d8b851fcfb424d9ac496e3b6,4,13433,53,4134330053,4134330053,413,<Null>,183 STREET,183 STREET,<Null>,DCAS,1520,NO USE-VACANT LAND,C,3,8,PROPERTY WITH NO USE,<Null>,<Null>,<Null>,1049755,177953,40.654875,-73.763919,<Null>
852,Point,811,d1badf0d5872e1b1c992245c5d3f1f1e,4,13432,32,4134320032,4134320032,413,<Null>,SPRINGFIELD BOULEVARD,SPRINGFIELD BOULEVARD,<Null>,DCAS,1520,NO USE-VACANT LAND,C,3,8,PROPERTY WITH NO USE,<Null>,<Null>,<Null>,1050024,178418,40.656149,-73.762945,<Null>
854,Point,821,d44db52ec7d5411aa6ab83b44f2956aa,4,2552,75,4025520075,4025520075,402,<Null>,56 ROAD,56 ROAD,<Null>,DCAS,1520,NO USE-VACANT LAND,C,3,8,PROPERTY WITH NO USE,<Null>,<Null>,<Null>,1005682,203869,40.726224,-73.922676,<Null>
856,Point,875,e9b0b7422fa3dce678e3e42925218cbe,4,13433,69,4134330069,4134330069,413,<Null>,183 STREET,183 STREET,<Null>,DCAS,1520,NO USE-VACANT LAND,C,3,8,PROPERTY WITH NO USE,<Null>,<Null>,<Null>,1049718,178285,40.655786,-73.764049,<Null>
857,Point,895,eeb348f9babda5528e911bc8b73ffe36,4,13433,45,4134330045,4134330045,413,<Null>,SPRINGFIELD BOULEVARD,SPRINGFIELD BOULEVARD,<Null>,DCAS,1520,NO USE-VACANT LAND,C,3,8,PROPERTY WITH NO USE,<Null>,<Null>,<Null>,1049814,177943,40.654847,-73.763706,<Null>
858,Point,899,efae7e9807cc89c4e9c7d87d4afbbe5d,4,13433,36,4134330036,4134330036,413,<Null>,SPRINGFIELD BOULEVARD,SPRINGFIELD BOULEVARD,<Null>,DCAS,1520,NO USE-VACANT LAND,C,3,8,PROPERTY WITH NO USE,<Null>,<Null>,<Null>,1049821,178139,40.655385,-73.763679,<Null>
859,Point,900,efc64c49b6a1293463662e32404060bf,4,2599,49,4025990049,4025990049,405,<Null>,RUST STREET,RUST STREET,<Null>,DCAS,1520,NO USE-VACANT LAND,C,3,8,PROPERTY WITH NO USE,<Null>,<Null>,<Null>,1008542,201831,40.720623,-73.912365,<Null>
860,Point,902,f011d8f16b663e57a9066c38025dd938,4,14260,144,4142600144,4142600144,483,<Null>,SOUTH CONDUIT BOULEVARD,SOUTH CONDUIT BOULEVARD,PARK,DOT,1520,NO USE-VACANT LAND,C,3,8,PROPERTY WITH NO USE,<Null>,<Null>,<Null>,1030808,181581,40.664953,-73.832179,<Null>
861,Point,915,f427339a0c23471d1718a67ffbf1d1f1,4,13433,55,4134330055,4134330055,413,<Null>,183 STREET,183 STREET,<Null>,DCAS,1520,NO USE-VACANT LAND,C,3,8,PROPERTY WITH NO USE,<Null>,<Null>,<Null>,1049746,177992,40.654982,-73.763951,<Null>
862,Point,916,f457125767444867331a72ab327df89f,4,10059,10,4100590010,4100590010,412,14726,105 AVENUE,14726 105 AVENUE,<Null>,HPD,1520,NO USE-VACANT LAND,C,3,8,PROPERTY WITH NO USE,<Null>,D,<Null>,1038919,192933,40.696065,-73.80285,<Null>
867,Point,955,fd21b0b4c2399350254bb9142e0e046c,4,2575,244,4025750244,4025750244,402,<Null>,49 LANE,49 LANE,<Null>,DCAS,1520,NO USE-VACANT LAND,C,3,8,PROPERTY WITH NO USE,<Null>,<Null>,<Null>,1006979,202899,40.723559,-73.918,<Null>
869,Point,965,ff817f6007ac697876493f7dfd95165c,4,276,46,4002760046,4002760046,402,<Null>,QUEENS BOULEVARD,QUEENS BOULEVARD,<Null>,DCAS,1520,NO USE-VACANT LAND,C,3,8,PROPERTY WITH NO USE,<Null>,<Null>,<Null>,1002574,210976,40.745738,-73.93387,<Null>
870,Point,967,ff9e665a333cf970cd8b52ddd98cc5fa,4,13433,29,4134330029,4134330029,413,<Null>,SPRINGFIELD BOULEVARD,SPRINGFIELD BOULEVARD,<Null>,DCAS,1520,NO USE-VACANT LAND,C,3,8,PROPERTY WITH NO USE,<Null>,<Null>,<Null>,1049903,178139,40.655384,-73.763384,<Null>
875,Point,31,0790c88abcbb66f07cc6aa2a7a3aa7f3,4,13432,23,4134320023,4134320023,413,<Null>,150 AVENUE,150 AVENUE,<Null>,DCAS,1520,NO USE-VACANT LAND,C,3,8,PROPERTY WITH NO USE,<Null>,<Null>,<Null>,1049957,178524,40.65644,-73.763185,<Null>
876,Point,36,07f380ab2b370c7d8786ccbaad0509fb,4,13433,35,4134330035,4134330035,413,<Null>,SPRINGFIELD BOULEVARD,SPRINGFIELD BOULEVARD,<Null>,DCAS,1520,NO USE-VACANT LAND,C,3,8,PROPERTY WITH NO USE,<Null>,<Null>,<Null>,1049833,177978,40.654943,-73.763638,<Null>
881,Point,113,1aa256c00d1d5f6bdd5484fc6eafad67,4,13433,5,4134330005,4134330005,413,<Null>,150 ROAD,150 ROAD,<Null>,DCAS,1520,NO USE-VACANT LAND,C,3,8,PROPERTY WITH NO USE,<Null>,<Null>,<Null>,1049767,178366,40.656008,-73.763872,<Null>
882,Point,118,1c659d9e664ee2cb667b8a962d699e0b,4,2545,54,4025450054,4025450054,402,<Null>,48 STREET,48 STREET,<Null>,DCAS,1520,NO USE-VACANT LAND,C,3,8,PROPERTY WITH NO USE,<Null>,<Null>,<Null>,1006617,205498,40.730693,-73.919297,<Null>
883,Point,121,1d073fea99d406fbe474701472278874,4,312,17,4003120017,4003120017,402,<Null>,LAUREL HILL BOULEVARD,LAUREL HILL BOULEVARD,<Null>,DCAS,1520,NO USE-VACANT LAND,C,3,8,PROPERTY WITH NO USE,<Null>,<Null>,<Null>,1001212,206622,40.73379,-73.938796,<Null>
884,Point,131,1fde83f9cdbb8a728cef5edb9930e422,4,14260,85,4142600085,4142600085,413,<Null>,<Null>,<Null>,<Null>,DSBS,1520,NO USE-VACANT LAND,C,3,8,PROPERTY WITH NO USE,<Null>,<Null>,<Null>,1045728,180682,40.662394,-73.778407,<Null>
885,Point,136,20859cdc952def322c0a3b361a8d600e,4,2602,325,4026020325,4026020325,405,<Null>,49 PLACE,49 PLACE,<Null>,DCAS,1520,NO USE-VACANT LAND,C,3,8,PROPERTY WITH NO USE,<Null>,<Null>,<Null>,1006171,201822,40.720605,-73.920919,<Null>
888,Point,160,25bf944bd80c1c1964b0e39ac7da2f1b,4,13433,23,4134330023,4134330023,413,<Null>,SPRINGFIELD BOULEVARD,SPRINGFIELD BOULEVARD,<Null>,DCAS,1520,NO USE-VACANT LAND,C,3,8,PROPERTY WITH NO USE,<Null>,<Null>,<Null>,1049943,178228,40.655628,-73.763239,<Null>
891,Point,193,2c1d5a43c4c8283ddfd88972a2449528,4,13433,15,4134330015,4134330015,413,<Null>,150 ROAD,150 ROAD,<Null>,DCAS,1520,NO USE-VACANT LAND,C,3,8,PROPERTY WITH NO USE,<Null>,<Null>,<Null>,1049885,178277,40.655763,-73.763447,<Null>
892,Point,202,3026f3316ac8f3bb3b03d2c3eb432813,4,2599,45,4025990045,4025990045,405,<Null>,RUST STREET,RUST STREET,<Null>,DCAS,1520,NO USE-VACANT LAND,C,3,8,PROPERTY WITH NO USE,<Null>,<Null>,<Null>,1008519,201869,40.720727,-73.912448,<Null>
896,Point,240,3b773cf366994226017a5671bcd504dd,4,13432,26,4134320026,4134320026,413,<Null>,150 AVENUE,150 AVENUE,<Null>,DCAS,1520,NO USE-VACANT LAND,C,3,8,PROPERTY WITH NO USE,<Null>,<Null>,<Null>,1049993,178508,40.656396,-73.763056,<Null>
897,Point,256,3e641eabe9ffa645be788e0dbdfee437,4,13432,59,4134320059,4134320059,413,<Null>,150 ROAD,150 ROAD,<Null>,DCAS,1520,NO USE-VACANT LAND,C,3,8,PROPERTY WITH NO USE,<Null>,<Null>,<Null>,1049700,178528,40.656453,-73.764112,<Null>
898,Point,259,3ee1b2e4331c6b06644be82117b15090,4,13419,1,4134190001,4134190001,413,18112,150 DRIVE,18112 150 DRIVE,<Null>,DCAS,1520,NO USE-VACANT LAND,C,3,8,PROPERTY WITH NO USE,<Null>,<Null>,<Null>,1049398,178167,40.655465,-73.765203,<Null>
899,Point,261,3f3859283b7baf5720707cb081bf6a7a,4,13432,28,4134320028,4134320028,413,<Null>,SPRINGFIELD BOULEVARD,SPRINGFIELD BOULEVARD,<Null>,DCAS,1520,NO USE-VACANT LAND,C,3,8,PROPERTY WITH NO USE,<Null>,<Null>,<Null>,1050063,178509,40.656398,-73.762803,<Null>
901,Point,266,4101e302b80b0e808c13f9eea8dedb76,4,13433,20,4134330020,4134330020,413,<Null>,150 ROAD,150 ROAD,<Null>,DCAS,1520,NO USE-VACANT LAND,C,3,8,PROPERTY WITH NO USE,<Null>,<Null>,<Null>,1049971,178289,40.655795,-73.763137,<Null>
902,Point,291,49728c2c767b45513ec3d61b01a2094f,4,13432,20,4134320020,4134320020,413,<Null>,SPRINGFIELD BOULEVARD,SPRINGFIELD BOULEVARD,<Null>,DCAS,1520,NO USE-VACANT LAND,C,3,8,PROPERTY WITH NO USE,<Null>,<Null>,<Null>,1049887,178541,40.656488,-73.763437,<Null>
906,Point,322,534de2ab82331ea2f7034400325029a9,4,2575,58,4025750058,4025750058,402,<Null>,56 ROAD,56 ROAD,<Null>,DCAS,1520,NO USE-VACANT LAND,C,3,8,PROPERTY WITH NO USE,<Null>,<Null>,<Null>,1006598,203789,40.726002,-73.919372,<Null>
908,Point,340,584d5e7f2ec60bb8473c7e34cef002e5,4,13433,10,4134330010,4134330010,413,<Null>,150 ROAD,150 ROAD,<Null>,DCAS,1520,NO USE-VACANT LAND,C,3,8,PROPERTY WITH NO USE,<Null>,<Null>,<Null>,1049827,178318,40.655876,-73.763656,<Null>
910,Point,343,58f76f538925263f360033fba8e21b85,4,2552,142,4025520142,4025520142,402,<Null>,56 ROAD,56 ROAD,<Null>,DCAS,1520,NO USE-VACANT LAND,C,3,8,PROPERTY WITH NO USE,<Null>,<Null>,<Null>,1006238,203812,40.726067,-73.92067,<Null>
911,Point,353,5b5f443b1bf306ecb9c020a5a48c8053,4,2611,80,4026110080,4026110080,405,<Null>,GRAND AVENUE,GRAND AVENUE,<Null>,DCAS,1520,NO USE-VACANT LAND,C,3,8,PROPERTY WITH NO USE,<Null>,<Null>,<Null>,1005797,200311,40.716458,-73.922273,<Null>
912,Point,355,5bedc0ceb93ebd5a2fb22c0f4d19e133,4,2575,70,4025750070,4025750070,402,3,56 ROAD,3 56 ROAD,<Null>,DCAS,1520,NO USE-VACANT LAND,C,3,8,PROPERTY WITH NO USE,<Null>,<Null>,<Null>,1006968,203697,40.725749,-73.918037,<Null>
913,Point,357,5d25437af6fa3b845f9ec2601ec1105f,4,1210,34,4012100034,4012100034,402,<Null>,38 AVENUE,38 AVENUE,<Null>,DCAS,1520,NO USE-VACANT LAND,C,3,8,PROPERTY WITH NO USE,<Null>,<Null>,<Null>,1009985,212396,40.749617,-73.907119,<Null>
915,Point,382,642349c40cea2caa8a9cb7d0ded9e537,4,13433,2,4134330002,4134330002,413,<Null>,150 ROAD,150 ROAD,<Null>,DCAS,1520,NO USE-VACANT LAND,C,3,8,PROPERTY WITH NO USE,<Null>,<Null>,<Null>,1049712,178402,40.656107,-73.764069,<Null>
916,Point,387,6534948273312d06dcb3ea34aa69dc8a,4,2552,100,4025520100,4025520100,402,<Null>,56 ROAD,56 ROAD,<Null>,DCAS,1520,NO USE-VACANT LAND,C,3,8,PROPERTY WITH NO USE,<Null>,<Null>,<Null>,1005655,203954,40.726458,-73.922773,<Null>
918,Point,402,6b98ac877eb5a03bce43236f4ef21c51,4,13432,67,4134320067,4134320067,413,<Null>,150 ROAD,150 ROAD,<Null>,DCAS,1520,NO USE-VACANT LAND,C,3,8,PROPERTY WITH NO USE,<Null>,<Null>,<Null>,1049642,178527,40.656451,-73.764321,<Null>
919,Point,434,746443541e42448265708ba7ede00768,4,2622,100,4026220100,4026220100,405,<Null>,RUST STREET,RUST STREET,<Null>,DCAS,1520,NO USE-VACANT LAND,C,3,8,PROPERTY WITH NO USE,<Null>,<Null>,<Null>,1009171,200923,40.718129,-73.910099,<Null>
920,Point,452,78b7add6d719b90b1de4b3a4a0512b8b,4,13432,65,4134320065,4134320065,413,<Null>,150 ROAD,150 ROAD,<Null>,DCAS,1520,NO USE-VACANT LAND,C,3,8,PROPERTY WITH NO USE,<Null>,<Null>,<Null>,1049666,178519,40.656429,-73.764234,<Null>
928,Point,545,8d4689ecd24c9efa620d3fac2f9a4321,4,13433,41,4134330041,4134330041,413,<Null>,SPRINGFIELD BOULEVARD,SPRINGFIELD BOULEVARD,<Null>,DCAS,1520,NO USE-VACANT LAND,C,3,8,PROPERTY WITH NO USE,<Null>,<Null>,<Null>,1049829,177943,40.654847,-73.763652,<Null>
932,Point,568,93427df100769e290d02af38657408e9,4,1210,33,4012100033,4012100033,402,<Null>,56 STREET,56 STREET,<Null>,DCAS,1520,NO USE-VACANT LAND,C,3,8,PROPERTY WITH NO USE,<Null>,<Null>,<Null>,1010069,212339,40.749461,-73.906816,<Null>
933,Point,583,9645253dcdf975b0d29858cc59be8353,4,13432,21,4134320021,4134320021,413,<Null>,SPRINGFIELD BOULEVARD,SPRINGFIELD BOULEVARD,<Null>,DCAS,1520,NO USE-VACANT LAND,C,3,8,PROPERTY WITH NO USE,<Null>,<Null>,<Null>,1049919,178536,40.656474,-73.763322,<Null>
938,Point,616,9de0dd3f7bb6cafec16ecd39673c1f11,4,2575,75,4025750075,4025750075,402,<Null>,56 ROAD,56 ROAD,<Null>,DCAS,1520,NO USE-VACANT LAND,C,3,8,PROPERTY WITH NO USE,<Null>,<Null>,<Null>,1007019,203678,40.725697,-73.917853,<Null>
940,Point,669,ad721ee75d271c239b200279430b02cd,4,13433,34,4134330034,4134330034,413,<Null>,SPRINGFIELD BOULEVARD,SPRINGFIELD BOULEVARD,<Null>,DCAS,1520,NO USE-VACANT LAND,C,3,8,PROPERTY WITH NO USE,<Null>,<Null>,<Null>,1049869,178051,40.655143,-73.763507,<Null>
947,Point,742,c068e4d248e11ce79a91553c48658a37,4,13433,57,4134330057,4134330057,413,<Null>,183 STREET,183 STREET,<Null>,DCAS,1520,NO USE-VACANT LAND,C,3,8,PROPERTY WITH NO USE,<Null>,<Null>,<Null>,1049744,178038,40.655108,-73.763958,<Null>
949,Point,749,c20b36114b315d4af3377b1b1eccf44d,4,10352,98,4103520098,4103520098,412,<Null>,JAMAICA AVENUE,JAMAICA AVENUE,<Null>,DCAS,1520,NO USE-VACANT LAND,C,3,8,PROPERTY WITH NO USE,<Null>,<Null>,<Null>,1046939,197875,40.709576,-73.773882,<Null>
950,Point,752,c2cdc7d7fc093deef02ee10bf25808b8,4,13433,59,4134330059,4134330059,413,<Null>,183 STREET,183 STREET,<Null>,DCAS,1520,NO USE-VACANT LAND,C,3,8,PROPERTY WITH NO USE,<Null>,<Null>,<Null>,1049737,178082,40.655229,-73.763982,<Null>
952,Point,766,c4dda171572cea7820e469e8c7f4fc37,4,13420,8,4134200008,4134200008,413,<Null>,ROCKAWAY BOULEV,ROCKAWAY BOULEV,<Null>,DCAS,1520,NO USE-VACANT LAND,C,3,8,PROPERTY WITH NO USE,<Null>,<Null>,<Null>,1049611,177954,40.654878,-73.764438,<Null>
954,Point,777,ca36a612d4421b99ad071f4d45f2fbf6,4,70,45,4000700045,4000700045,402,<Null>,51 AVENUE,51 AVENUE,UNDER MIDTOWN TUNNEL EXPWY,DCAS,1520,NO USE-VACANT LAND,C,3,8,PROPERTY WITH NO USE,<Null>,<Null>,<Null>,998518,209413,40.741456,-73.948511,<Null>
956,Point,785,cd1624a89262a084d4fea33a96d08d12,4,13432,30,4134320030,4134320030,413,<Null>,SPRINGFIELD BOULEVARD,SPRINGFIELD BOULEVARD,<Null>,DCAS,1520,NO USE-VACANT LAND,C,3,8,PROPERTY WITH NO USE,<Null>,<Null>,<Null>,1050048,178473,40.6563,-73.762858,<Null>
960,Point,810,d1401dc6d8b851fcfb424d9ac496e3b6,4,13433,53,4134330053,4134330053,413,<Null>,183 STREET,183 STREET,<Null>,DCAS,1520,NO USE-VACANT LAND,C,3,8,PROPERTY WITH NO USE,<Null>,<Null>,<Null>,1049755,177953,40.654875,-73.763919,<Null>
961,Point,811,d1badf0d5872e1b1c992245c5d3f1f1e,4,13432,32,4134320032,4134320032,413,<Null>,SPRINGFIELD BOULEVARD,SPRINGFIELD BOULEVARD,<Null>,DCAS,1520,NO USE-VACANT LAND,C,3,8,PROPERTY WITH NO USE,<Null>,<Null>,<Null>,1050024,178418,40.656149,-73.762945,<Null>
963,Point,821,d44db52ec7d5411aa6ab83b44f2956aa,4,2552,75,4025520075,4025520075,402,<Null>,56 ROAD,56 ROAD,<Null>,DCAS,1520,NO USE-VACANT LAND,C,3,8,PROPERTY WITH NO USE,<Null>,<Null>,<Null>,1005682,203869,40.726224,-73.922676,<Null>
965,Point,875,e9b0b7422fa3dce678e3e42925218cbe,4,13433,69,4134330069,4134330069,413,<Null>,183 STREET,183 STREET,<Null>,DCAS,1520,NO USE-VACANT LAND,C,3,8,PROPERTY WITH NO USE,<Null>,<Null>,<Null>,1049718,178285,40.655786,-73.764049,<Null>
966,Point,895,eeb348f9babda5528e911bc8b73ffe36,4,13433,45,4134330045,4134330045,413,<Null>,SPRINGFIELD BOULEVARD,SPRINGFIELD BOULEVARD,<Null>,DCAS,1520,NO USE-VACANT LAND,C,3,8,PROPERTY WITH NO USE,<Null>,<Null>,<Null>,1049814,177943,40.654847,-73.763706,<Null>
967,Point,899,efae7e9807cc89c4e9c7d87d4afbbe5d,4,13433,36,4134330036,4134330036,413,<Null>,SPRINGFIELD BOULEVARD,SPRINGFIELD BOULEVARD,<Null>,DCAS,1520,NO USE-VACANT LAND,C,3,8,PROPERTY WITH NO USE,<Null>,<Null>,<Null>,1049821,178139,40.655385,-73.763679,<Null>
968,Point,900,efc64c49b6a1293463662e32404060bf,4,2599,49,4025990049,4025990049,405,<Null>,RUST STREET,RUST STREET,<Null>,DCAS,1520,NO USE-VACANT LAND,C,3,8,PROPERTY WITH NO USE,<Null>,<Null>,<Null>,1008542,201831,40.720623,-73.912365,<Null>
969,Point,902,f011d8f16b663e57a9066c38025dd938,4,14260,144,4142600144,4142600144,483,<Null>,SOUTH CONDUIT BOULEVARD,SOUTH CONDUIT BOULEVARD,PARK,DOT,1520,NO USE-VACANT LAND,C,3,8,PROPERTY WITH NO USE,<Null>,<Null>,<Null>,1030808,181581,40.664953,-73.832179,<Null>
970,Point,915,f427339a0c23471d1718a67ffbf1d1f1,4,13433,55,4134330055,4134330055,413,<Null>,183 STREET,183 STREET,<Null>,DCAS,1520,NO USE-VACANT LAND,C,3,8,PROPERTY WITH NO USE,<Null>,<Null>,<Null>,1049746,177992,40.654982,-73.763951,<Null>
971,Point,916,f457125767444867331a72ab327df89f,4,10059,10,4100590010,4100590010,412,14726,105 AVENUE,14726 105 AVENUE,<Null>,HPD,1520,NO USE-VACANT LAND,C,3,8,PROPERTY WITH NO USE,<Null>,D,<Null>,1038919,192933,40.696065,-73.80285,<Null>
976,Point,955,fd21b0b4c2399350254bb9142e0e046c,4,2575,244,4025750244,4025750244,402,<Null>,49 LANE,49 LANE,<Null>,DCAS,1520,NO USE-VACANT LAND,C,3,8,PROPERTY WITH NO USE,<Null>,<Null>,<Null>,1006979,202899,40.723559,-73.918,<Null>
978,Point,965,ff817f6007ac697876493f7dfd95165c,4,276,46,4002760046,4002760046,402,<Null>,QUEENS BOULEVARD,QUEENS BOULEVARD,<Null>,DCAS,1520,NO USE-VACANT LAND,C,3,8,PROPERTY WITH NO USE,<Null>,<Null>,<Null>,1002574,210976,40.745738,-73.93387,<Null>
979,Point,967,ff9e665a333cf970cd8b52ddd98cc5fa,4,13433,29,4134330029,4134330029,413,<Null>,SPRINGFIELD BOULEVARD,SPRINGFIELD BOULEVARD,<Null>,DCAS,1520,NO USE-VACANT LAND,C,3,8,PROPERTY WITH NO USE,<Null>,<Null>,<Null>,1049903,178139,40.655384,-73.763384,<Null>
